venue_id,url,lat,lon,name,address
2327985024,https://www.geekswhodrink.com/venues/2327985024,39.7752947,-104.97054,Left Hand Brewing Co.,"4180 Wynkoop St Suite 140 Denver, CO 80216"
578108901,https://www.geekswhodrink.com/venues/578108901,39.770259,-104.97919,Great Divide Brewing Company - Barrel Bar,"1812 35th St Denver, CO 80216"
2448804152,https://www.geekswhodrink.com/venues/2448804152,39.768735,-104.9804121,The Woods (Starts on May 15!),"3330 Brighton Blvd. Denver, CO 80216"
1256925246,https://www.geekswhodrink.com/venues/1256925246,39.7648113,-104.9801861,14er Brewing and Beer Garden,"3120 Blake St. Unit C Denver, CO 80205"
578109853,https://www.geekswhodrink.com/venues/578109853,39.7551428,-104.976978,Spangalang Brewery,"2736 Welton St. STE 102 Denver, CO 80205"
169722855,https://www.geekswhodrink.com/venues/169722855,39.7641691,-104.9813152,Stem Ciders,"3040 Blake Street Suite 101 Denver, CO 80205"
2394747215,https://www.geekswhodrink.com/venues/2394747215,39.7403976,-104.9490503,Star Wars Quiz Vol. 1 at Atomic Cowboy - Colfax,"3237 E. Colfax Ave Denver, CO 80206"
851510938,https://www.geekswhodrink.com/venues/851510938,39.7403094,-104.9491214,Atomic Cowboy - Colfax,"3237 E. Colfax Ave Denver, CO 80206"
108959930,https://www.geekswhodrink.com/venues/108959930,39.7405923,-104.9277327,The Abbey Tavern,"5151 E Colfax Ave Denver, CO 80220"
2180668068,https://www.geekswhodrink.com/venues/2180668068,39.7559662,-104.9013649,Ephemeral Rotating Taproom,"2301 E 28th Avenue Denver, CO 80205"
2234094424,https://www.geekswhodrink.com/venues/2234094424,39.7562717,-104.9912319,Cherry Cricket (Ballpark),"2220 Blake Street Denver, CO 80205"
1161188111,https://www.geekswhodrink.com/venues/1161188111,39.7369903,-104.9721305,Wild Corgi Pub (check venue for reservations!),"1223 E 13th Ave Denver, CO 80218"
526783344,https://www.geekswhodrink.com/venues/526783344,39.7298016,-104.9410862,Congress Park Taproom,"833 Colorado Blvd Denver, CO 80206"
204918650,https://www.geekswhodrink.com/venues/204918650,39.75226,-104.9913841,Jagged Mountain Craft Brewery,"1139 20th Street Denver, CO 80202"
1898708668,https://www.geekswhodrink.com/venues/1898708668,39.7531593,-104.9970626,Denver Milk Market,"1800 Wazee St #100 Denver, CO 80202"
2409681959,https://www.geekswhodrink.com/venues/2409681959,39.7501106,-104.9975082,The Black Buzzard at Oskar Blues,"1624 Market St Denver, CO 80202"
1951945002,https://www.geekswhodrink.com/venues/1951945002,39.7580389,-105.0075509,Cerveceria Colorado,"1635 Platte Street Denver, CO 80202"
2306094159,https://www.geekswhodrink.com/venues/2306094159,39.7672008,-105.0110287,Chicken Rebel,"3618 Tejon St Denver, CO 80211"
2062669675,https://www.geekswhodrink.com/venues/2062669675,39.7592302,-105.0109062,Post Chicken and Beer - Lohi,"1575 Boulder St Denver, CO 80211"
715188153,https://www.geekswhodrink.com/venues/715188153,39.7586429,-105.0153123,Zuni Street Brewing Co,"2355 W 29th Ave. Denver, CO 80211"
2317055010,https://www.geekswhodrink.com/venues/2317055010,39.720811,-104.8961811,Lowry Beer Garden,"7577 E Academy Blvd Denver, CO 80230"
813483534,https://www.geekswhodrink.com/venues/813483534,39.7117544,-104.9728669,The Sportsbook Bar and Grill (Wash Park),"266B S Downing Street Denver, CO 80209"
60846919,https://www.geekswhodrink.com/venues/60846919,39.7155585,-104.9872019,The Irish Rover,"54 S Broadway Denver, CO 80209"
2374325531,https://www.geekswhodrink.com/venues/2374325531,39.7137398,-104.9877857,Atomic Cowboy South Broadway,"141 S Broadway Denver, CO 80209"
2441104256,https://www.geekswhodrink.com/venues/2441104256,39.7137398,-104.9877857,Star Wars Quiz Vol. 3 at Atomic Cowboy South Broadway,"141 S Broadway Denver, CO 80209"
2193698342,https://www.geekswhodrink.com/venues/2193698342,39.7109648,-104.982377,The Molecule Effect,"300 S. Logan Street Denver, CO 80209"
943723849,https://www.geekswhodrink.com/venues/943723849,39.7631566,-105.0347283,Oasis Brewing Co,"3257 Lowell Blvd Denver, CO 80211"
2416983003,https://www.geekswhodrink.com/venues/2416983003,39.698647,-104.9078996,W.T. Shortys Sports Grill (Starts on April 30!),"990 S Oneida St Denver, CO 80224"
2420783434,https://www.geekswhodrink.com/venues/2420783434,39.7743733,-105.0443717,The Atomic Cowboy - Tennyson (Starts on April 26!),"4275 TENNYSON ST Denver, CO 80212"
2441104756,https://www.geekswhodrink.com/venues/2441104756,39.7743733,-105.0443717,Star Wars Quiz Vol. 2 at The Atomic Cowboy - Tennyson,"4275 TENNYSON ST Denver, CO 80212"
2237197043,https://www.geekswhodrink.com/venues/2237197043,39.7438344,-105.0396686,The Patio at Sloans,"4032 W 17TH AVE Denver, CO 80204"
2059247850,https://www.geekswhodrink.com/venues/2059247850,39.75868,-105.0450724,Greg's Kitchen & Taphouse,"4433 W 29th Ave Suite 102 Denver, CO 80212"
2021562371,https://www.geekswhodrink.com/venues/2021562371,39.7408882,-105.0424996,Guardians of the Galaxy Vol. 3 Hype Quiz! at BarFly @Alamo Drafthouse Sloans Lake,"4255 W. Colfax Ave. Denver, CO 80204"
596022697,https://www.geekswhodrink.com/venues/596022697,39.7408103,-105.0425249,BarFly @Alamo Drafthouse Sloans Lake,"4255 W. Colfax Ave. Denver, CO 80204"
1761976413,https://www.geekswhodrink.com/venues/1761976413,39.6768189,-104.996892,The Table Public House,"2190 S. Platte River Dr. Denver, CO 80223"
1919685563,https://www.geekswhodrink.com/venues/1919685563,39.7995416,-105.0799677,The Grandview Tavern and Grill,"7427 Grandview Avenue Arvada, CO 80002"
743912788,https://www.geekswhodrink.com/venues/743912788,39.8015087,-105.080965,Denver Beer Co (Olde Town Arvada),"5768 Olde Wadsworth Blvd Arvada, CO 80002"
2202216305,https://www.geekswhodrink.com/venues/2202216305,39.654104,-104.9879455,Brewability,"3445 South Broadway Englewood, CO 80113"
2021643507,https://www.geekswhodrink.com/venues/2021643507,39.8585487,-105.0616436,Guardians of the Galaxy Vol. 3 Hype Quiz! at Pandora's Box @Alamo Drafthouse Westminster,"8905 Westminster Blvd Westminster, CO 80031"
695420763,https://www.geekswhodrink.com/venues/695420763,39.7867767,-105.1087839,Discovery Tap House,"4990 Kipling St Suite 7 Wheat Ridge, CO 80033"
1152019366,https://www.geekswhodrink.com/venues/1152019366,39.8632067,-105.062626,Pandora's Box @Alamo Drafthouse Westminster,"8905 Westminster Blvd Westminster, CO 80031"
22150288,https://www.geekswhodrink.com/venues/22150288,39.627026,-104.8953453,Darcy's Bistro & Pub,"4955 South Ulster Street #103 Denver, CO 80237"
660553719,https://www.geekswhodrink.com/venues/660553719,39.6578219,-105.0834708,LandLocked Ales,"3225 S Wadsworth Blvd Lakewood, CO 80227"
1793242863,https://www.geekswhodrink.com/venues/1793242863,39.9157985,-105.0098562,30/70 Sports Bar & Grill,"1885 W 120th Ave Westminster, CO 80234"
2447265172,https://www.geekswhodrink.com/venues/2447265172,39.8873643,-105.0758645,Quinto Neighborhood Pizzeria & Taphouse (Starts on May 17!),"10443 Town Center Dr Suite 600 Westminster, CO 80021"
2063299989,https://www.geekswhodrink.com/venues/2063299989,39.9303761,-105.0339015,I Hop IPA,"12920 Lowell Blvd Unit G Broomfield, CO 80020"
1784777529,https://www.geekswhodrink.com/venues/1784777529,39.8148042,-105.1641615,LUKI Brewery,"14715 W 64th Ave Units A&B Arvada, CO 80004"
2167723102,https://www.geekswhodrink.com/venues/2167723102,39.5972949,-104.8957705,Grange Hall,"6575 Greenwood Plaza Blvd Greenwood Village, CO 80111"
2380955978,https://www.geekswhodrink.com/venues/2380955978,39.6245717,-105.0889318,Pier 8 Cajun Seafood & Bar,"5066 S Wadsworth Blvd Littleton, CO 80123"
2001931913,https://www.geekswhodrink.com/venues/2001931913,39.5933505,-104.8568774,Max Taps Co. Centennial,"11405 E Briarwood Ave #100 Centennial, CO 80112"
2207755484,https://www.geekswhodrink.com/venues/2207755484,39.5933505,-104.8568774,Max Taps Co. Centennial (Saturday),"11405 E Briarwood Ave #100 Centennial, CO 80112"
2284164578,https://www.geekswhodrink.com/venues/2284164578,39.5933505,-104.8568774,The Office Quiz Vol. 1 at Max Taps Co. Centennial (Saturday),"11405 E Briarwood Ave #100 Centennial, CO 80112"
2021570991,https://www.geekswhodrink.com/venues/2021570991,39.5864258,-105.0249216,Guardians of the Galaxy Vol. 3 Hype Quiz! at Glass Half Full @Alamo Drafthouse Littleton,"7301 S Santa Fe Dr, Unit 850 Littleton, CO 80120"
80526652,https://www.geekswhodrink.com/venues/80526652,39.5844826,-105.0253232,Glass Half Full @Alamo Drafthouse Littleton (Wednesday),"7301 S Santa Fe Drive Littleton, CO 80120"
902269351,https://www.geekswhodrink.com/venues/902269351,39.5828082,-105.0254449,Glass Half Full @Alamo Drafthouse Littleton (Tuesday),"7301 S Santa Fe Dr, Unit 850 Littleton, CO 80120"
681197046,https://www.geekswhodrink.com/venues/681197046,39.5655128,-104.9566716,Max Taps Co.,"2680 East County Line Rd Suite A Highlands Ranch, CO 80129"
2202315601,https://www.geekswhodrink.com/venues/2202315601,39.5671966,-104.9056471,The Atomic Cowboy - Centennial,"8271 S Quebec St Centennial, CO 80112"
2441106939,https://www.geekswhodrink.com/venues/2441106939,39.5671966,-104.9056471,Star Wars Quiz Vol. 1 at The Atomic Cowboy - Centennial,"8271 S Quebec St Centennial, CO 80112"
2401728400,https://www.geekswhodrink.com/venues/2401728400,39.567758,-104.8739666,Rock Bottom Restaurant & Brewery - Centennial,"9627 E. County Line Road Centennial, CO 80112"
2404723845,https://www.geekswhodrink.com/venues/2404723845,39.5551501,-105.0075737,Rock Bottom Restaurant & Brewery - Highlands Ranch,"1505 Park Central Dr Highlands Ranch, CO 80126"
2335079334,https://www.geekswhodrink.com/venues/2335079334,39.9301041,-105.149424,Pats-Tap,"1611 Coalton rd Superior, CO 80020"
760783622,https://www.geekswhodrink.com/venues/760783622,39.9760839,-105.1284965,Gravity Brewing,"1150 Pine St Unit B Louisville, CO 80027"
408873780,https://www.geekswhodrink.com/venues/408873780,39.9945627,-105.0913428,Post Chicken & Beer - Lafayette,"105 W Emma St Lafayette, CO 80026"
2366992342,https://www.geekswhodrink.com/venues/2366992342,39.9979618,-105.0908376,Ghost Box Pizza,"103 South Public Road Lafayette, CO 80026"
193819073,https://www.geekswhodrink.com/venues/193819073,39.999521,-105.1035763,Liquid Mechanics Brewing,"297 U.S. 287 #100 Lafayette, CO 80026"
1252935951,https://www.geekswhodrink.com/venues/1252935951,39.9878512,-105.1363573,Mudrock's Tap & Tavern,"585 E South Boulder Rd. Louisville, CO 80027"
2332541626,https://www.geekswhodrink.com/venues/2332541626,39.6993571,-105.3319424,El Rancho,"29260 US-40 Evergreen, CO 80439"
2202374822,https://www.geekswhodrink.com/venues/2202374822,40.0201565,-105.2183531,Upslope Brewing Co.,"1898 S. Flatiron Court Boulder, CO 80301"
2241034417,https://www.geekswhodrink.com/venues/2241034417,40.0217412,-105.2194041,Wild Provisions Beer Project,"2209 Central Ave Boulder, CO 80304"
36244923,https://www.geekswhodrink.com/venues/36244923,40.0207662,-105.2510729,Twisted Pine Brewing Company,"3201 Walnut Street Boulder, CO 80301"
358160661,https://www.geekswhodrink.com/venues/358160661,40.0149297,-105.2641215,Backcountry Pizza and Taphouse,"2319 Arapahoe Ave Boulder, CO 80302"
2187552089,https://www.geekswhodrink.com/venues/2187552089,40.1600731,-105.0225932,Outworld Brewing,"1725 Vista View Drive Ste B Longmont, CO 80504"
2439725082,https://www.geekswhodrink.com/venues/2439725082,40.1600731,-105.0225932,Star Wars Quiz Vol. 1 at Outworld Brewing,"1725 Vista View Drive Ste B Longmont, CO 80504"
2363279099,https://www.geekswhodrink.com/venues/2363279099,40.1391594,-105.1315146,Oskar Blues Home Made Liquids & Solids,"1555 Hover St Longmont, CO 80501"
1910652191,https://www.geekswhodrink.com/venues/1910652191,39.375534,-104.8712998,'00s Quiz Vol. 1 at BURLY Brewing Company,"680 Atchison Way, Suite 800 Castle Rock, CO 80109"
1002923621,https://www.geekswhodrink.com/venues/1002923621,39.375444,-104.8708703,BURLY Brewing Company,"680 Atchison Way, Suite 800 Castle Rock, CO 80109"
2335106504,https://www.geekswhodrink.com/venues/2335106504,39.3759687,-104.8617545,The Hideaway Bar and Grill,"600 Jerry St Castle Rock, CO 80104"
2156400696,https://www.geekswhodrink.com/venues/2156400696,40.1655686,-105.1046392,Abbott & Wallace Distilling,"350 Terry St Ste 120 Longmont, CO 80501-5492"
34259026,https://www.geekswhodrink.com/venues/34259026,40.3886012,-104.7867728,The Tavern at St. Michael's Square,"2918 67th Avenue Greeley, CO 80634"
2408259563,https://www.geekswhodrink.com/venues/2408259563,40.3960167,-105.0704348,MeadKrieger Meadery,"452 N Washington Loveland, CO 80537"
2271217000,https://www.geekswhodrink.com/venues/2271217000,40.3956067,-105.075218,Wicked Tequila Room,"123 E 4th St Loveland, CO 80537"
2004580514,https://www.geekswhodrink.com/venues/2004580514,40.42271,-105.0765196,Krazy Karl's Pizza Loveland,"225 E 29th St Unit 100 Loveland, CO 80538"
2180803092,https://www.geekswhodrink.com/venues/2180803092,40.4572963,-104.9821431,Mighty River Brewing,"6383 N Fairgrounds Ave, Suite 200 Windsor, CO 80550"
2375960746,https://www.geekswhodrink.com/venues/2375960746,40.4660491,-104.8880751,Howlers and Growlers,"1246 Automation Dr Windsor, CO 80550"
1912821636,https://www.geekswhodrink.com/venues/1912821636,40.5215256,-105.0576137,Otto Pint Fort Collins,"1100 Oakridge Drive Fort Collins, CO 80525"
652587175,https://www.geekswhodrink.com/venues/652587175,40.5392903,-105.0752914,Gilded Goat Brewing Company,"3500 S College Ave #194 Fort Collins, CO 80525"
2370692429,https://www.geekswhodrink.com/venues/2370692429,40.5396825,-105.0753483,Star Wars Quiz Vol. 1 at Gilded Goat Brewing Company,"3500 S College Ave #194 Fort Collins, CO 80525"
548190019,https://www.geekswhodrink.com/venues/548190019,40.5512258,-105.0387982,Krazy Karl's Pizza 2,"2620 S Timberline Rd Fort Collins, CO 80525"
173301769,https://www.geekswhodrink.com/venues/173301769,40.5512899,-105.0592287,Island Grill,"2601 South Lemay Avenue #12 Fort Collins, CO 80525"
595861109,https://www.geekswhodrink.com/venues/595861109,40.5750132,-105.0970762,Krazy Karl's Pizza,"1124 W. Elizabeth St. Fort Collins, CO 80525"
2338743860,https://www.geekswhodrink.com/venues/2338743860,40.5800249,-105.0442328,Peculier Ales Fort Collins,"1831 E. Mulberry Fort Collins, CO 80524"
2238909521,https://www.geekswhodrink.com/venues/2238909521,40.5783197,-105.077433,Half Fast Subs,"649 S College Ave, unit B Fort Collins, CO 80524"
2349133658,https://www.geekswhodrink.com/venues/2349133658,40.5831516,-105.0423678,Funkwerks,"1900 E LIncoln Ave Unit B Fort Collins, CO 80524"
2348173340,https://www.geekswhodrink.com/venues/2348173340,40.5874401,-105.0781066,Gilded Goat Brewing Company - Downtown,"132 W Mountain Ave Fort Collins, CO 80524"
20718193,https://www.geekswhodrink.com/venues/20718193,40.587438,-105.0782839,Trailhead Tavern,"148 W Mountain Ave Fort Collins, CO 80524"
376637644,https://www.geekswhodrink.com/venues/376637644,40.5880177,-105.0745551,Illegal Pete's (Fort Collins),"320 Walnut St Fort Collins, CO 80524"
2260579603,https://www.geekswhodrink.com/venues/2260579603,40.5892529,-105.0773391,Beau Jo's (Fort Collins),"205 N College Ave Fort Collins, CO 80524"
835301047,https://www.geekswhodrink.com/venues/835301047,40.602573,-105.077526,The Lyric,"1209 N College Ave Fort Collins, CO 80524"
185060564,https://www.geekswhodrink.com/venues/185060564,38.9275223,-104.8302922,Cleats Bar & Grill,"6624 Delmonico Dr Colorado Springs, CO 80919"
2373216207,https://www.geekswhodrink.com/venues/2373216207,38.9026605,-104.8517895,Upper90 Tavern,"4845 List Dr Colorado Springs, CO 80919"
283834918,https://www.geekswhodrink.com/venues/283834918,38.8955368,-104.7150483,The Control Room,"6120 Barnes Road Colorado Springs, CO 80922"
1869453650,https://www.geekswhodrink.com/venues/1869453650,38.8771567,-104.8201541,The Public House at The Alexander,"3104 N. Nevada Ave Colorado Springs, CO 80907"
454488799,https://www.geekswhodrink.com/venues/454488799,38.8796603,-104.7558463,Cogstone Brewing Company,"3858 Village Seven Rd Colorado Springs, CO 80917"
294813703,https://www.geekswhodrink.com/venues/294813703,38.8472939,-104.8623047,Mother Muff's,"2432 W Colorado Ave Colorado Springs, CO 80904"
595861664,https://www.geekswhodrink.com/venues/595861664,38.8472939,-104.8623047,Mother Muff's (Sunday),"2432 W Colorado Ave Colorado Springs, CO 80904"
37247220,https://www.geekswhodrink.com/venues/37247220,38.84651,-104.8620848,Thunder & Buttons II,"2415 W. Colorado Ave Colorado Springs, CO 80904"
37247303,https://www.geekswhodrink.com/venues/37247303,38.8392218,-104.8235869,Tony's,"326 North Tejon Street Colorado Springs, CO 80903"
2232576073,https://www.geekswhodrink.com/venues/2232576073,38.8335303,-104.819277,The Well,"315 E Pikes Peak Ave Colorado Springs, CO 80903"
1873596906,https://www.geekswhodrink.com/venues/1873596906,38.8329622,-104.8231406,Star Wars Quiz Vol. 2 at Jack Quinn's Irish Alehouse & Pub,"21 S. Tejon St. Colorado Springs, CO 80903"
34290628,https://www.geekswhodrink.com/venues/34290628,38.832959,-104.823043,Jack Quinn's Irish Alehouse & Pub,"21 S. Tejon St. Colorado Springs, CO 80903"
2106541434,https://www.geekswhodrink.com/venues/2106541434,38.8284557,-104.8235282,The Block Bar & Grill,"333 S. Tejon St. Colorado Springs, CO 80903"
2011506584,https://www.geekswhodrink.com/venues/2011506584,38.7899779,-104.8233608,Hatch Cover,"252 E Cheyenne Mountain Blvd Colorado Springs, CO 80906"
2394734186,https://www.geekswhodrink.com/venues/2394734186,36.7088126,-105.4081121,Red River Brewing Company & Distillery,"217 W Main St Red River, NM 87558"
978309781,https://www.geekswhodrink.com/venues/978309781,37.2697725,-107.8810186,The Roost,"128 E College Drive Durango, CO 81301"
2090273001,https://www.geekswhodrink.com/venues/2090273001,35.8829196,-106.3001755,Bob's Burgers Vol. 1 at Boese Brothers Brewpub (Los Alamos),"145 Central Park Square, #145 Los Alamos, NM 87544"
1190559791,https://www.geekswhodrink.com/venues/1190559791,35.8829201,-106.3001869,Boese Brothers Brewpub (Los Alamos),"145 Central Park Square, #145 Los Alamos, NM 87544"
931569499,https://www.geekswhodrink.com/venues/931569499,35.6871935,-105.9401998,Desert Dogs Brewery and Cidery,"112 W San Francisco St, Suite 307 Santa Fe, NM 87501"
241693706,https://www.geekswhodrink.com/venues/241693706,35.6822789,-105.9490175,Second Street Brewery (at The Railyard),"1607 Paseo De Peralta #10 Santa Fe, NM 87501"
2049741263,https://www.geekswhodrink.com/venues/2049741263,35.6790827,-105.9491035,Social Kitchen Bar,"725 Cerillos Road Santa Fe, NM 87507"
760060888,https://www.geekswhodrink.com/venues/760060888,35.5965609,-106.0515842,Santa Fe Brewing Company,"35 Fire Place Santa Fe, NM 87508"
1265000058,https://www.geekswhodrink.com/venues/1265000058,35.1738465,-106.4969974,Boese Brothers Brewpub (NE Heights),"7849 Tramway Blvd NE Suite C Albuquerque, NM 87122"
1859096354,https://www.geekswhodrink.com/venues/1859096354,35.1841663,-106.5759739,Santa Fe Brewing (Tin Can Alley),"6110 Alameda Blvd NE Suite #1 Albuquerque, NM 87113"
851510294,https://www.geekswhodrink.com/venues/851510294,35.2121867,-106.6968926,Tractor Brewing Co (Westside),"5720 McMahon Blvd Bldg 5 Ste A Albuquerque, NM 87114"
2406137485,https://www.geekswhodrink.com/venues/2406137485,35.1659905,-106.6356479,Hops Brewery,"7222 4th Street NW Los Ranchos De Albuquerque, NM 87107"
1300904530,https://www.geekswhodrink.com/venues/1300904530,35.1232941,-106.5513077,Poki Poki Cevicheria (Wyoming Blvd),"3517 Wyoming Blvd NE Albuquerque, NM 87111"
848065604,https://www.geekswhodrink.com/venues/848065604,35.1057264,-106.6033436,Santa Fe Brewing Co. (Albuquerque Taproom),"3600 Cutler NE Albuquerque, NM 87110"
2357011853,https://www.geekswhodrink.com/venues/2357011853,35.1120004,-106.6466954,Sunday Service Motor Company,"2701 4th Street NW Albuquerque, NM 87107"
2097112554,https://www.geekswhodrink.com/venues/2097112554,35.1049058,-106.6510058,Bow & Arrow Brewing,"608 McKnight Ave. NW Albuquerque, NM 87102"
125569365,https://www.geekswhodrink.com/venues/125569365,35.102196,-106.6476898,Tractor Brewing Wells Park,"1800 4th St NW Albuquerque, NM 87102"
2323922319,https://www.geekswhodrink.com/venues/2323922319,35.101124,-106.6642076,Ponderosa Brewing Company,"1761 Bellamah Ave NW Albuquerque, NM 87104"
2298654956,https://www.geekswhodrink.com/venues/2298654956,35.0963616,-106.6705151,Downshift Brewing Company,"301 Romero St NW Suite 205 Albuquerque, NM 87104"
2394955256,https://www.geekswhodrink.com/venues/2394955256,35.0942043,-106.6768448,El Vado Taproom,"2500 Central Avenue Southwest Albuquerque, NM 87104"
2275292728,https://www.geekswhodrink.com/venues/2275292728,35.0807077,-106.621014,505 Spirits,"105 Harvard Dr SE Albuquerque, NM 87106"
2227060975,https://www.geekswhodrink.com/venues/2227060975,35.0851434,-106.6530323,505 Central Food Hall,"505 Central Ave NW Albuquerque, NM 87102"
2439683175,https://www.geekswhodrink.com/venues/2439683175,35.0839834,-106.6543763,'90s Quiz Vol. 1 at Boese Brothers Brewery (Albuquerque Downtown),"601 Gold Ave. SW Albuquerque, NM 87102"
1310974429,https://www.geekswhodrink.com/venues/1310974429,40.7166699,-111.8942605,Level Crossing Brewing,"2496 S W Temple South Salt Lake, UT 84115"
2129518386,https://www.geekswhodrink.com/venues/2129518386,40.766285,-111.9042147,Dave and Buster's - Salt Lake City,"140 S. Rio Grande St. Salt Lake City, UT 84101"
2339037525,https://www.geekswhodrink.com/venues/2339037525,40.766285,-111.9042147,'80s Quiz Vol. 1 at Dave and Buster's - Salt Lake City,"140 S. Rio Grande St. Salt Lake City, UT 84101"
2247649007,https://www.geekswhodrink.com/venues/2247649007,44.5257409,-109.053176,Cody Craft Brewing,"1732 Sheridan Ave Cody, WY 82414"
1160988517,https://www.geekswhodrink.com/venues/1160988517,40.8161396,-96.7114728,Gate 25 Bar and Restaurant,"300 Canopy St #140 Lincoln, NE 68508"
2426630316,https://www.geekswhodrink.com/venues/2426630316,40.814517,-96.706675,Rosie’s Sports Bar & Grill (Downtown) (Starts on June 1!),"130 N 10th St Lincoln, NE 68508"
2336187169,https://www.geekswhodrink.com/venues/2336187169,40.7394615,-96.6428922,Zipline Beer Hall Lincoln,"5740 Hidcote Dr Suite B Lincoln, NE 68516"
194077070,https://www.geekswhodrink.com/venues/194077070,33.5960763,-101.9263019,Glass Half Full @Alamo Drafthouse Lubbock,"120 W Loop 289 Lubbock, TX 79416"
2336187136,https://www.geekswhodrink.com/venues/2336187136,41.2235299,-96.2335387,Zipline Beer Lounge,"3808 S 203rd Plaza Omaha, NE 68130"
2296822328,https://www.geekswhodrink.com/venues/2296822328,41.2395479,-96.0152176,Backlot Taphouse,"2110 S. 67th St, Suite 108 Omaha, NE 68106"
2308690314,https://www.geekswhodrink.com/venues/2308690314,35.5811498,-97.5675091,Hopscotch,"10909 N May Ave Oklahoma City, OK 73120"
1765365079,https://www.geekswhodrink.com/venues/1765365079,35.6547287,-97.4818183,Frenzy Brewing Company,"15 South Broadway Edmond, OK 73034"
2016806581,https://www.geekswhodrink.com/venues/2016806581,35.6547287,-97.4818183,Star Wars Quiz Vol. 2 at Frenzy Brewing Company,"15 South Broadway Edmond, OK 73034"
2335004621,https://www.geekswhodrink.com/venues/2335004621,36.1160974,-97.0595494,Iron Monk Brewing Co.,"519 S. Husband St. Stillwater, OK 74074"
709245219,https://www.geekswhodrink.com/venues/709245219,35.4686196,-97.5291333,Stonecloud Brewing Company,"1012 NW 1st St Suite 101 Oklahoma City, OK 73106"
1239558234,https://www.geekswhodrink.com/venues/1239558234,35.221615,-97.442569,The Meating Place,"121 E Main St Norman, OK 73069"
2123371342,https://www.geekswhodrink.com/venues/2123371342,35.2228474,-97.4381566,Lazy Circles Brewing,"422 E Main St. Norman, OK 73071"
2447348366,https://www.geekswhodrink.com/venues/2447348366,35.2228474,-97.4381566,Star Wars Quiz Vol. 1 at Lazy Circles Brewing,"422 E Main St. Norman, OK 73071"
2228072143,https://www.geekswhodrink.com/venues/2228072143,39.1267032,-94.8259759,"Dave and Buster's - Kansas City, KS","1843 Village W Pkwy, #201 Kansas City, KS 66109"
2339020772,https://www.geekswhodrink.com/venues/2339020772,39.1267032,-94.8259759,"'80s Quiz Vol. 1 at Dave and Buster's - Kansas City, KS","1843 Village W Pkwy, #201 Kansas City, KS 66109"
1053529433,https://www.geekswhodrink.com/venues/1053529433,39.022661,-94.715219,Transport Brewery,"11113 Johnson Dr. Shawnee, KS 66203"
1260079721,https://www.geekswhodrink.com/venues/1260079721,38.913357,-94.725818,Barley's Kitchen and Tap,"11924 W 119th St Overland Park, KS 66213"
79004365,https://www.geekswhodrink.com/venues/79004365,38.9917835,-94.6667453,Burg and Barrel Overland Park,"7042 W 76th Street Overland Park, KS 66204"
2230884896,https://www.geekswhodrink.com/venues/2230884896,38.881443,-94.665299,Dave and Buster's - Overland Park,"6811 W 135th St Overland Park, KS 19106"
2339033245,https://www.geekswhodrink.com/venues/2339033245,38.881443,-94.665299,'80s Quiz Vol. 1 at Dave and Buster's - Overland Park,"6811 W 135th St Overland Park, KS 19106"
2056394948,https://www.geekswhodrink.com/venues/2056394948,38.8832282,-94.6542781,Chicken N Pickle - Overland Park,"5901 W 135th St. Overland Park, KS 66223"
2308692406,https://www.geekswhodrink.com/venues/2308692406,38.957594,-94.6279051,Meat Mitch,"3620 W 95th St Leawood, KS 66206"
2115202903,https://www.geekswhodrink.com/venues/2115202903,38.8559079,-94.6476988,Burg & Barrel Leawood,"5408 W. 151st St. Leawood, KS 66224"
77680327,https://www.geekswhodrink.com/venues/77680327,39.0570118,-94.6031476,Hi-Dive Lounge,"1411 West 39th Street Kansas City, MO 64111"
2392149230,https://www.geekswhodrink.com/venues/2392149230,39.0812076,-94.5954281,Boulevard Brewing Co.,"2534 Madison Avenue Kansas City, MO 64108"
2441769117,https://www.geekswhodrink.com/venues/2441769117,39.0812076,-94.5954281,Star Wars Quiz Vol. 1 at Boulevard Brewing Co.,"2534 Madison Avenue Kansas City, MO 64108"
164286164,https://www.geekswhodrink.com/venues/164286164,39.140424,-94.5788462,Cinder Block Brewery,"110 East 18th Avenue North Kansas City, MO 64116"
1319429321,https://www.geekswhodrink.com/venues/1319429321,39.066667,-94.5915502,Rochester Brewing and Roasting Company,"2129 Washington St. Kansas City, MO 64108"
1944238321,https://www.geekswhodrink.com/venues/1944238321,39.1093841,-94.5798137,DoubleTap KC,"310 Oak Street Kansas City, MO 64106"
2007105119,https://www.geekswhodrink.com/venues/2007105119,39.0512071,-94.5905704,Atomic Cowboy KC,"4144 Pennsylvania Ave Kansas City, MO 64111"
1352263518,https://www.geekswhodrink.com/venues/1352263518,39.0709955,-94.5798338,Brick House KC,"400 E 31st St Kansas City, MO 64108"
27033699,https://www.geekswhodrink.com/venues/27033699,39.0141357,-94.5888059,Charlie Hooper's,"12 W. 63rd St. Kansas City, MO 64113"
2180352964,https://www.geekswhodrink.com/venues/2180352964,39.0926296,-94.5733241,Torn Label Brewing Co.,"1708 Campbell St Kansas City, MO 64108"
378556076,https://www.geekswhodrink.com/venues/378556076,31.8132265,-106.510691,Glass Half Full @Alamo Drafthouse El Paso,"250 E. Montecillo Blvd. El Paso, TX 79912"
2370723475,https://www.geekswhodrink.com/venues/2370723475,36.0653104,-95.8604245,Dave and Buster's - Tulsa,"6812 S 105th E Ave Tulsa, OK 74133"
2370730401,https://www.geekswhodrink.com/venues/2370730401,36.0653104,-95.8604245,'80s Quiz Vol. 1 at Dave and Buster's - Tulsa,"6812 S 105th E Ave Tulsa, OK 74133"
2129518372,https://www.geekswhodrink.com/venues/2129518372,31.78394,-106.4118096,Dave and Buster's - El Paso,"6101 Gateway West, Ste. 2006 El Paso, TX 79925"
2339009239,https://www.geekswhodrink.com/venues/2339009239,31.78394,-106.4118096,'80s Quiz Vol. 1 at Dave and Buster's - El Paso,"6101 Gateway West, Ste. 2006 El Paso, TX 79925"
2348995020,https://www.geekswhodrink.com/venues/2348995020,32.0047154,-102.1213702,Tall City Brewing Company,"3303 W Golf Course Rd Midland, TX 79703"
2018605203,https://www.geekswhodrink.com/venues/2018605203,32.0047084,-102.121358,Star Wars Quiz Vol. 2 at Tall City Brewing Company,"3303 W. Golf Course Rd Midland, TX 79703"
2019352285,https://www.geekswhodrink.com/venues/2019352285,31.752752,-106.3172894,Star Wars Quiz Vol. 2 at Border City Ale House,"1506 Lee Trevino, Suite# G El Paso, TX 79936"
779401900,https://www.geekswhodrink.com/venues/779401900,31.7527073,-106.3173406,Border City Ale House,"1506 Lee Trevino, Suite# G El Paso, TX 79936"
2436387746,https://www.geekswhodrink.com/venues/2436387746,31.7617799,-106.488168,Star Wars Quiz Vol. 1 at Craft & Social,"305 E Franklin Ave. El Paso, TX 79901"
445047794,https://www.geekswhodrink.com/venues/445047794,31.7617775,-106.4881631,Craft & Social,"305 E Franklin Ave. El Paso, TX 79901"
2014323123,https://www.geekswhodrink.com/venues/2014323123,31.7553736,-106.4924589,Deadbeach Brewery,"406 S. Durango El Paso, TX 79901"
2062014678,https://www.geekswhodrink.com/venues/2062014678,31.7553736,-106.4924589,Star Wars Quiz Vol. 3 at Deadbeach Brewery,"406 S. Durango El Paso, TX 79901"
2187551052,https://www.geekswhodrink.com/venues/2187551052,39.2462324,-94.4188117,3HALVESBrewingCo,"110 E Kansas St Liberty, MO 64068"
2271213504,https://www.geekswhodrink.com/venues/2271213504,39.0944275,-94.4233307,Block 15 Tavern & Exchange,"311 Delaware St Suite 102 A Kansas City, MO 64105"
860696334,https://www.geekswhodrink.com/venues/860696334,33.625333,-111.9239698,Sorso Wine Room,"15323 N Scottsdale Rd #150 Scottsdale, AZ 85254"
1331046802,https://www.geekswhodrink.com/venues/1331046802,33.6831949,-112.083335,Simple Machine Brewing,"701 W Deer Valley Dr Ste 1 Phoenix, AZ 85027"
1910940745,https://www.geekswhodrink.com/venues/1910940745,33.6831949,-112.083335,Star Wars Quiz Vol. 1 at Simple Machine Brewing,"701 W Deer Valley Dr Ste 1 Phoenix, AZ 85027"
1335009503,https://www.geekswhodrink.com/venues/1335009503,33.4155087,-111.8321063,12 West Brewing (Mesa),"12 W Main St Mesa, AZ 85201"
2238116860,https://www.geekswhodrink.com/venues/2238116860,33.3218978,-111.7268891,12 West Brewing (Gilbert),"3000 E Ray Rd, Barnone, Building 6, Suite 110 Gilbert, AZ 85296"
2332448098,https://www.geekswhodrink.com/venues/2332448098,33.4216848,-111.9243478,Devil's Advocate Sports Grill,"955 E University Drive Tempe, AZ 85281"
2222677230,https://www.geekswhodrink.com/venues/2222677230,33.5182983,-112.0636009,Verdura,"5555 N 7th St STE 108 Phoenix, AZ 85014"
2263440777,https://www.geekswhodrink.com/venues/2263440777,33.5669686,-112.160993,Easy Tiger Bar,"4725 W Olive Ave Glendale, AZ 85302"
2417807871,https://www.geekswhodrink.com/venues/2417807871,33.5669686,-112.160993,Harry Potter Quiz Vol. 1 at Easy Tiger Bar,"4725 W Olive Ave Glendale, AZ 85302"
2126420481,https://www.geekswhodrink.com/venues/2126420481,33.3345119,-111.8336627,SanTan Gardens,"495 E. Warner Rd. Chandler, AZ 85225"
1912818637,https://www.geekswhodrink.com/venues/1912818637,33.4996797,-112.0834299,Star Wars Quiz Vol. 2 at Thunderbird Lounge,"710 W Montecito Ave Phoenix, AZ 85013"
1871870600,https://www.geekswhodrink.com/venues/1871870600,33.4996617,-112.0834389,Thunderbird Lounge,"710 W Montecito Ave Phoenix, AZ 85013"
2380738170,https://www.geekswhodrink.com/venues/2380738170,33.3020625,-111.8417484,"Cheba Hut ""Toasted"" Subs","11 W Boston St Chandler, AZ 85225"
2434255930,https://www.geekswhodrink.com/venues/2434255930,33.4948162,-112.3391323,Tap Savvy (Starts on May 17!),"13000 W Indian School Rd suite a-6 Litchfield Park, AZ 85340"
2039721905,https://www.geekswhodrink.com/venues/2039721905,35.9783348,-114.8366873,Star Wars Quiz Vol. 3 at Boulder Dam Brewing Company,"453 Nevada Hwy Boulder City, NV 89005"
815297144,https://www.geekswhodrink.com/venues/815297144,35.9783156,-114.836691,Boulder Dam Brewing Company,"453 Nevada Hwy Boulder City, NV 89005"
193718354,https://www.geekswhodrink.com/venues/193718354,41.5854253,-93.6220605,The Red Monk,"210 4th Street Des Moines, IA 50309"
2444081476,https://www.geekswhodrink.com/venues/2444081476,36.2423831,-115.2358178,Star Wars Quiz Vol. 2 at Big Dog's Draft House,"4543 N. Rancho Drive Las Vegas, NV 89108"
250222287,https://www.geekswhodrink.com/venues/250222287,36.242387,-115.2358276,Big Dog's Draft House,"4543 N. Rancho Drive Las Vegas, NV 89108"
2351228994,https://www.geekswhodrink.com/venues/2351228994,36.1143768,-115.1615763,Pub 365,"255 East Flamingo Road Las Vegas, NV 89104"
2039606289,https://www.geekswhodrink.com/venues/2039606289,36.2113829,-115.2500019,Pixar Quiz Vol. 1 at Aces and Ales Tenaya,"2801 North Tenaya Way Las Vegas, NV 89128"
159489585,https://www.geekswhodrink.com/venues/159489585,36.2113864,-115.2500108,Aces and Ales Tenaya,"2801 North Tenaya Way Las Vegas, NV 89128"
2142589967,https://www.geekswhodrink.com/venues/2142589967,32.3550489,-110.9751826,The Landing,"8195 N. Oracle Rd. Tucson, AZ 85704"
2447437072,https://www.geekswhodrink.com/venues/2447437072,44.7749935,-94.9962682,Waylon's (Starts on April 24!),"210 S 13th St Olivia, MN 56277"
37048590,https://www.geekswhodrink.com/venues/37048590,32.2502114,-110.8432584,The Canyon's Crown Restaurant & Pub,"6958 E. Tanque Verde Rd. Tucson, AZ 85715"
2439728131,https://www.geekswhodrink.com/venues/2439728131,32.2502268,-110.8433243,Star Was Quiz Vol. 1 at The Canyon's Crown Restaurant & Pub,"6958 E. Tanque Verde Rd. Tucson, AZ 85715"
1112380857,https://www.geekswhodrink.com/venues/1112380857,32.2365917,-110.8945535,"Craft, A Modern Drinkery","4603 E Speedway Blvd Tucson, AZ 85712"
1746286750,https://www.geekswhodrink.com/venues/1746286750,32.2236269,-110.9652399,Dillinger Brewing Co,"402 E 9th St Tucson, AZ 85705"
1160784407,https://www.geekswhodrink.com/venues/1160784407,32.214412,-110.9595118,Barrio Brewing Co.,"800 E 16th St. Tucson, AZ 85719"
2089304178,https://www.geekswhodrink.com/venues/2089304178,32.214412,-110.9595118,'90s Quiz Vol. 1 at Barrio Brewing Co.,"800 E 16th St. Tucson, AZ 85719"
681246777,https://www.geekswhodrink.com/venues/681246777,31.459835,-100.434649,The Martial Pint,"19 E Concho Ave San Angelo, TX 76903"
862843969,https://www.geekswhodrink.com/venues/862843969,34.5671616,-114.3590786,Hangar 24 Craft Brewery Lake Havasu,"5600 AZ-95 #6 Lake Havasu City, AZ 86404"
1050255742,https://www.geekswhodrink.com/venues/1050255742,43.6118143,-116.2031078,Boise Brewing,"521 W Broad St Boise, ID 83702"
2447164491,https://www.geekswhodrink.com/venues/2447164491,36.123499,-94.157275,Smokin' Oak Wood-Fired Pizza & Taproom [Fayetteville] (Starts on June 20!),"3959 N Steele Blvd Fayetteville, AR 72703"
2030510154,https://www.geekswhodrink.com/venues/2030510154,32.746015,-97.328098,T&P Tavern,"221 W Lancaster Avenue, #1000 Fort Worth, TX 76102"
2329270484,https://www.geekswhodrink.com/venues/2329270484,33.0752089,-96.8612114,Thirsty Lion Gastropub - Grandscape,"5754 Grandscape Blvd Suite 205 The Colony, TX 75056"
1928789494,https://www.geekswhodrink.com/venues/1928789494,32.7415838,-97.3246956,HopFusion Ale Works,"200 E BROADWAY AVE Fort Worth, TX 76104"
2387964310,https://www.geekswhodrink.com/venues/2387964310,33.0992281,-96.8114886,Smokin' Oak Wood-Fired Pizza,"2601 Preston Rd (STONE BRIAR MALL) Frisco, TX 75034"
902796168,https://www.geekswhodrink.com/venues/902796168,32.7071306,-97.3601544,University Pub,"3019 S University Drive Fort Worth, TX 76109"
2365763260,https://www.geekswhodrink.com/venues/2365763260,32.8851855,-97.0980269,Chicken N Pickle- Grapevine,"4600 Merlot Ave Grapevine, TX 76051"
480834452,https://www.geekswhodrink.com/venues/480834452,32.9524185,-96.8383874,The Londoner,"14930 Midway Rd Addison, TX 75001"
2441950878,https://www.geekswhodrink.com/venues/2441950878,32.9528855,-96.8188968,Loro Dallas (Starts on May 18!),"14999 Montfort Dr Dallas, TX 75254"
2227013705,https://www.geekswhodrink.com/venues/2227013705,33.0181979,-96.7003279,Urban Rio Cantina & Grill,"1000 14th St #100 Plano, TX 75074"
1757312998,https://www.geekswhodrink.com/venues/1757312998,32.9523902,-96.7367713,Monkey King Noodle Company,"520 Lockwood Drive Suite #100 Richardson, TX 75080"
2336767042,https://www.geekswhodrink.com/venues/2336767042,32.9523902,-96.7367713,GAPCo,"520 Lockwood dr Richardson, TX 75080"
595860135,https://www.geekswhodrink.com/venues/595860135,32.9498642,-96.7368444,Glass Half Full @Alamo Drafthouse Richardson (Monday),"100 South Central Expressway #14 Richardson, TX 75080"
77981365,https://www.geekswhodrink.com/venues/77981365,32.9498642,-96.7368444,Glass Half Full @Alamo Drafthouse Richardson (Wednesday),"100 South Central Expressway #14 Richardson, TX 75080"
1713118948,https://www.geekswhodrink.com/venues/1713118948,32.942877,-96.7434468,Texadelphia (Richardson),"746 S. Central Expressway, Suite 100 Richardson, TX 75080"
2067313215,https://www.geekswhodrink.com/venues/2067313215,32.8109301,-96.8616532,Community Beer Company Tap Room,"3110 Commonwealth Dr Dallas, TX 75247"
2339007634,https://www.geekswhodrink.com/venues/2339007634,32.8773729,-96.7690652,'80s Quiz Vol. 1 at Dave and Buster's - Dallas,"9450 N US 75-Central Expy #1000 Dallas, TX 75231"
1973871574,https://www.geekswhodrink.com/venues/1973871574,32.8773645,-96.7690559,Dave and Buster's - Dallas,"9450 N US 75-Central Expy #1000 Dallas, TX 75231"
2273075325,https://www.geekswhodrink.com/venues/2273075325,32.8673664,-96.7415379,Vetted Well @Alamo Drafthouse Lake Highlands,"6770 Abrams Rd Dallas, TX 75231"
319317646,https://www.geekswhodrink.com/venues/319317646,32.84164,-96.771991,Barley House,"5612 SMU Boulevard Dallas, TX 75206"
2330319418,https://www.geekswhodrink.com/venues/2330319418,32.8381111,-96.7757194,The Londoner Pub Dallas,"5321 E Mockingbird Ln, Unit 250 Dallas, TX 75206"
2357124667,https://www.geekswhodrink.com/venues/2357124667,33.0149544,-96.5391252,Herman Marshall Whiskey,"121 Ballard Ave Wylie, TX 75098"
2097155487,https://www.geekswhodrink.com/venues/2097155487,32.7694591,-96.8355964,Sylvan Avenue Tavern,"1888 Sylvan Avenue Dallas, TX 75208"
82389624,https://www.geekswhodrink.com/venues/82389624,32.7996855,-96.7792473,Bryan Street Tavern (Wednesday),"4315 Bryan St Dallas, TX 75204"
361322736,https://www.geekswhodrink.com/venues/361322736,32.7699137,-96.7995181,Vetted Well @Alamo Drafthouse Dallas,"1005 Botham Jean Blvd Dallas, TX 75215"
229796426,https://www.geekswhodrink.com/venues/229796426,32.7808028,-96.7816597,Deep Ellum Brewing Company Taproom,"2823 Saint Louis Street Dallas, TX 75226"
771599801,https://www.geekswhodrink.com/venues/771599801,32.772085,-96.791787,Four Corners Brewing,"1311 S Ervay St Dallas, TX 75215"
1889337240,https://www.geekswhodrink.com/venues/1889337240,32.7720467,-96.7917788,Nintendo Quiz Vol. 1 at Four Corners Brewing,"1311 S Ervay St Dallas, TX 75215"
2350345386,https://www.geekswhodrink.com/venues/2350345386,32.8276979,-96.7088693,The Lounge Here,"9028 Garland Road Dallas, TX 75218"
2317499339,https://www.geekswhodrink.com/venues/2317499339,32.7667033,-96.7887517,Autonomous Society,"1928 S. Akard Street Dallas, TX 75215"
919201713,https://www.geekswhodrink.com/venues/919201713,42.5342535,-92.4457569,The Brass Tap (Cedar Falls),"421 Main Street Cedar Falls, IA 50613"
2202251891,https://www.geekswhodrink.com/venues/2202251891,42.5108403,-92.4360905,Lark Brewing,"6301 University Ave Cedar Falls, IA 50613"
2363314121,https://www.geekswhodrink.com/venues/2363314121,31.0838524,-97.7024685,Bubba's 33,"3701 E Central TX EXPY Killeen, TX 76543"
2197130014,https://www.geekswhodrink.com/venues/2197130014,31.1271426,-97.4158687,Bold Republic Brewing Company,"7070 stone hollow drive Temple Temple, TX 76502"
2199095465,https://www.geekswhodrink.com/venues/2199095465,31.095676,-97.3402417,Corkys Wine and Beer,"13 S 2nd St Temple, TX 76501"
2407965898,https://www.geekswhodrink.com/venues/2407965898,30.5483815,-97.8148925,The Fieldhouse at The Crossover,"1717 Scottsdale Dr Suite 170 Leander, TX 78641"
364268288,https://www.geekswhodrink.com/venues/364268288,30.5336382,-97.7810309,Red Horn Coffee House and Brewing (Cedar Park),"13010 W Parmer Ln Unit 800 Cedar Park, TX 78613"
2372959065,https://www.geekswhodrink.com/venues/2372959065,30.5692879,-97.6871586,Bar Louie (Round Rock),"270 Bass Pro Blvd. Round Rock, TX 78655"
2342593629,https://www.geekswhodrink.com/venues/2342593629,30.4977812,-97.8207897,The Dig Pub,"401 Cypress Creek Rd, 600 Cedar Park, TX 78613"
164279323,https://www.geekswhodrink.com/venues/164279323,30.4768636,-97.803898,Glass Half Full @Alamo Drafthouse Lakeline,"14028 U.S. 183 Austin, TX 78717"
2021544315,https://www.geekswhodrink.com/venues/2021544315,30.4760825,-97.8036994,Guardians of the Galaxy Vol. 3 Hype Quiz! at Glass Half Full @Alamo Drafthouse Lakeline,"14028 U.S. 183 Austin, TX 78717"
1921388290,https://www.geekswhodrink.com/venues/1921388290,30.462205,-97.8140429,Slackers Brewing Co.,"12233 Ranch Rd 620 N #204 Austin, TX 78750"
2400483927,https://www.geekswhodrink.com/venues/2400483927,30.4211535,-97.8471224,Smokin' Oak Wood-Fired Pizza - Austin,"8300 N FM 620 Suite K-200 Austin, TX 78726"
1776683373,https://www.geekswhodrink.com/venues/1776683373,30.5241994,-97.6388061,Kenney Fort Pub,"3001 Joe DiMaggio Blvd Ste. 1400 Round Rock, TX 78665"
1740555737,https://www.geekswhodrink.com/venues/1740555737,30.4250364,-97.7160848,Aviator Pizza & Drafthouse (Parmer Lane),"4005 W Parmer Ln Suite E Austin, TX 78727"
601804025,https://www.geekswhodrink.com/venues/601804025,30.372314,-97.8022228,Coffee Shark Espresso and Pints,"7300 Ranch Rd 2222 Austin, TX 78730"
2226897031,https://www.geekswhodrink.com/venues/2226897031,30.3402795,-97.8631897,Patrizi’s West,"1705 Cuernavaca Dr N Austin, TX 78733"
2129518391,https://www.geekswhodrink.com/venues/2129518391,30.38346,-97.7374266,Dave and Buster's - Austin,"9333 Research Blvd, Suite A600 Austin, TX 78759"
2338998447,https://www.geekswhodrink.com/venues/2338998447,30.38346,-97.7374266,'80s Quiz Vol. 1 at Dave and Buster's - Austin,"9333 Research Blvd, Suite A600 Austin, TX 78759"
407498157,https://www.geekswhodrink.com/venues/407498157,30.4492356,-97.6066521,The Growler Bar,"1300 FM 685 Pflugerville, TX 78660"
2357160623,https://www.geekswhodrink.com/venues/2357160623,30.3911437,-97.71536,Circle Brewing Company,"2340 W Braker Ln Ste B Austin, TX 78758"
2075345597,https://www.geekswhodrink.com/venues/2075345597,30.384047,-97.7233607,Turnstile Coffee Beer and Spirits,"10025 Burnet Road Austin, TX 78758"
2035122060,https://www.geekswhodrink.com/venues/2035122060,30.3849434,-97.7122154,Fairweather Cider Co,"10609 Metric Blvd #108 Austin, TX 78758"
688089768,https://www.geekswhodrink.com/venues/688089768,30.3797278,-97.7159854,Celis Brewery,"10001 Metric Blvd Austin, TX 78758"
18191681,https://www.geekswhodrink.com/venues/18191681,30.3614382,-97.7162305,Mister Tramps,"8565 Research Blvd Austin, TX 78758"
19199768,https://www.geekswhodrink.com/venues/19199768,30.338477,-97.7188128,Black Star Co-Op Pub and Brewery,"7020 Easy Wind Dr ste 100 Austin, TX 78752"
20863496,https://www.geekswhodrink.com/venues/20863496,30.3219768,-97.7397859,Billy's on Burnet,"2105 Hancock Drive Austin, TX 78756"
2414671023,https://www.geekswhodrink.com/venues/2414671023,30.2924419,-97.720603,Progress Coffee + Beer,"3421 N Interstate Hwy 35 Austin, TX 78722"
906522717,https://www.geekswhodrink.com/venues/906522717,30.2935421,-97.716,Cherrywood Coffeehouse,"1400 E 38th 1/2 St Austin, TX 78722"
2018635583,https://www.geekswhodrink.com/venues/2018635583,30.2988474,-97.7042499,Guardians of the Galaxy Vol. 3 Hype Quiz! at Barrel O' Fun @Alamo Drafthouse Mueller,"1911 Aldrich St Austin, TX 78723"
568505118,https://www.geekswhodrink.com/venues/568505118,30.2983453,-97.7042744,Barrel O' Fun @Alamo Drafthouse Mueller,"1911 Aldrich St Austin, TX 78723"
787373592,https://www.geekswhodrink.com/venues/787373592,30.2842068,-97.7178666,The Butterfly Bar @ The VORTEX,"2307 Manor Rd Austin, TX 78722"
57880532,https://www.geekswhodrink.com/venues/57880532,30.2701169,-97.7433276,The Iron Bear,"301 W 6th St Austin, TX 78701"
1911690791,https://www.geekswhodrink.com/venues/1911690791,30.2675285,-97.7454473,SmashATX,"213 W.5th street Austin, TX 78701"
2021556999,https://www.geekswhodrink.com/venues/2021556999,30.2561977,-97.7635717,Guardians of the Galaxy Vol. 3 Hype Quiz! at The Highball @Alamo Drafthouse,"1120 S Lamar Blvd Austin, TX 78704"
16729898,https://www.geekswhodrink.com/venues/16729898,30.2552404,-97.7628018,The Highball @Alamo Drafthouse,"1120 S Lamar Blvd Austin, TX 78704"
37069574,https://www.geekswhodrink.com/venues/37069574,30.2550055,-97.7618664,Gibson Bar,"1109 South Lamar Blvd Austin, TX 78704"
2390088576,https://www.geekswhodrink.com/venues/2390088576,30.266322,-97.7350602,Wanderlust Wine Co. (Downtown),"610 N Interstate Hwy 35 Austin, TX 78701"
2021636097,https://www.geekswhodrink.com/venues/2021636097,30.2005741,-97.8691415,Guardians of the Galaxy Vol. 3 Hype Quiz! at 400 Rabbits @Alamo Drafthouse Slaughter Lane,"5701 W. Slaughter Ln Austin, TX 78739"
2172615722,https://www.geekswhodrink.com/venues/2172615722,30.2407046,-97.7858874,The Garden at the 704,"3403 S Lamar Blvd Austin, TX 78704"
37034165,https://www.geekswhodrink.com/venues/37034165,30.2008446,-97.8673772,400 Rabbits @Alamo Drafthouse Slaughter Lane,"5701 W. Slaughter Ln Austin, TX 78739"
2199053633,https://www.geekswhodrink.com/venues/2199053633,30.257026,-97.7392259,Salvation Pizza - Rainey St.,"51 Rainey St #130 Austin, TX 78701"
1225443911,https://www.geekswhodrink.com/venues/1225443911,30.267079,-97.692381,The Front Page,"1023 Springdale Rd Bldg 1 Suite F Austin, TX 78721"
2430299675,https://www.geekswhodrink.com/venues/2430299675,30.2627334,-97.6961713,Austin Eastciders Collaboratory (Starts on May 6!),"979 Springdale Rd. Ste 130 Austin, TX 78702"
407138600,https://www.geekswhodrink.com/venues/407138600,30.2524254,-97.7107703,Lustre Pearl,"114 Linden St Austin, TX 78702"
984754560,https://www.geekswhodrink.com/venues/984754560,30.2380296,-97.7394423,Whip In,"1950 S IH 35 Austin, TX 78704"
2220834468,https://www.geekswhodrink.com/venues/2220834468,30.2244374,-97.7605577,Nomadic Beerworks,"3804 Woodbury Dr Suite A Austin, TX 78704"
2156824607,https://www.geekswhodrink.com/venues/2156824607,30.2526992,-97.7022564,Kokos Bavarian,"4715 E 5th St Austin, TX 78702"
2290901050,https://www.geekswhodrink.com/venues/2290901050,30.2546213,-97.6969972,Hi Sign Brewing,"730 Shady Ln Austin, TX 78702"
31603338,https://www.geekswhodrink.com/venues/31603338,30.1692795,-97.8266672,Moontower Saloon,"10212 Manchaca Rd Austin, TX 78748"
409902525,https://www.geekswhodrink.com/venues/409902525,30.2120633,-97.736139,Independence Brewing Co.,"3913 Todd Ln #607 Austin, TX 78744"
2419263534,https://www.geekswhodrink.com/venues/2419263534,30.1642159,-97.8313137,South Austin Beer Garden (Starts on April 26!),"10700 Menchaca Road Austin, TX 78748"
1699936731,https://www.geekswhodrink.com/venues/1699936731,30.182919,-97.7814034,Last Stand Brewing,"7601 S Congress Bldg 6 Austin, TX 78745"
2323841258,https://www.geekswhodrink.com/venues/2323841258,30.2055358,-97.7271155,"Fierce Whiskers Distillery, LLC","5333 Flemming Ct Austin, TX 78744"
405778824,https://www.geekswhodrink.com/venues/405778824,34.0831511,-117.1418331,Hangar 24 Brewery Redlands,"1710 Sessums Drive Redlands, CA 92374"
2378780571,https://www.geekswhodrink.com/venues/2378780571,30.0820016,-97.8431269,Meridian,"200 Main St Buda, TX 78610"
2430806973,https://www.geekswhodrink.com/venues/2430806973,34.0582781,-117.1851102,Look Cinemas - Redlands (Starts on May 3!),"340 N Eureka St. Redlands, CA 92374"
2217064026,https://www.geekswhodrink.com/venues/2217064026,38.6557666,-90.3049591,Blueberry Hill,"6504 Delmar Blvd St. Louis, MO 63139"
1900433596,https://www.geekswhodrink.com/venues/1900433596,38.6206559,-90.2604639,Bar K -St. Louis,"4565 McRee Ave St. Louis, MO 63110"
1314869233,https://www.geekswhodrink.com/venues/1314869233,38.6023935,-90.2616925,City Park Grill,"3157 Morganford Rd St. Louis, MO 63116"
2335023507,https://www.geekswhodrink.com/venues/2335023507,38.6335038,-90.2410231,The Meaning of Bar @ Alamo Drafthouse St. Louis,"3765 Foundry Way Suite 275 St. Louis, MO 63110"
599510345,https://www.geekswhodrink.com/venues/599510345,38.6112054,-90.2008479,Pieces,"1535 S 8th St St. Louis, MO 63104"
1891987450,https://www.geekswhodrink.com/venues/1891987450,29.4895964,-98.666032,Star Wars Quiz Vol. 2 at Mad Pecker Brewing Co.,"6025 Tezel Rd. #122 San Antonio, TX 78250"
466392117,https://www.geekswhodrink.com/venues/466392117,29.4895167,-98.6661828,Mad Pecker Brewing Co.,"6025 Tezel Rd. #122 San Antonio, TX 78250"
2355036095,https://www.geekswhodrink.com/venues/2355036095,30.6239477,-96.3399935,Mo's Irish Pub - College Station,"1025 University Dr #101 College Station, TX 77840"
977176449,https://www.geekswhodrink.com/venues/977176449,29.4319118,-98.4823173,Roadmap Brewing Co,"723 N. Alamo St. San Antonio, TX 78215"
2354428704,https://www.geekswhodrink.com/venues/2354428704,29.4131438,-98.4882984,Southtown 101,"101 Pereida St San Antonio, TX 78210"
2278173756,https://www.geekswhodrink.com/venues/2278173756,29.3815401,-98.5653201,Boeing Center at Tech Port,"3331 General Hudnell Dr San Antonio, TX 78226"
706230442,https://www.geekswhodrink.com/venues/706230442,35.1390918,-118.4582731,Local Craft Beer,"365 Enterprise Way Ste G Tehachapi, CA 93561"
443630355,https://www.geekswhodrink.com/venues/443630355,34.6144131,-118.1396795,Transplants Brewing Company,"40242 La Quinta Ln #101 Palmdale, CA 93551"
2386133871,https://www.geekswhodrink.com/venues/2386133871,36.3299489,-119.2869605,BarrelHouse Brewing - Visalia,"521 E Main St Visalia, CA 93292"
2430804579,https://www.geekswhodrink.com/venues/2430804579,34.1476977,-118.0005389,Look Cinemas - Monrovia (Starts on May 3!),"410 S Myrtle Ave. Monrovia, CA 91016"
2372970504,https://www.geekswhodrink.com/venues/2372970504,33.642858,-117.5991995,Selma's Chicago Pizzeria & Tap Room RSM,"30461 Avenida de las Flores Rancho Santa Margarita, CA 92688"
598809227,https://www.geekswhodrink.com/venues/598809227,34.1466284,-118.1299577,T Boyle's Tavern (Tuesday),"37 N Catalina Ave Pasadena, CA 91106"
2207470629,https://www.geekswhodrink.com/venues/2207470629,33.6512136,-117.7437513,Dave and Buster's - Irvine,"661 Spectrum Center Drive Irvine, CA 92618"
2339016331,https://www.geekswhodrink.com/venues/2339016331,33.6495603,-117.745256,'80s Quiz Vol. 1 at Dave and Buster's - Irvine,"661 Spectrum Center Drive Irvine, CA 92618"
940191141,https://www.geekswhodrink.com/venues/940191141,33.6681638,-117.7640527,Left Coast Brewing Company (Irvine),"6652 Irvine Center Dr. Irvine, CA 92618"
595861337,https://www.geekswhodrink.com/venues/595861337,33.4582739,-117.5889807,Left Coast Brewing Company (Saturday),"1251 Puerta Del Sol San Clemente, CA 92672"
2370696910,https://www.geekswhodrink.com/venues/2370696910,33.8696062,-117.9283912,Bootlegger's Brewery - Fullerton,"130 S highland Fullerton, CA 92832"
87269140,https://www.geekswhodrink.com/venues/87269140,34.1468433,-118.1492848,The Blind Donkey (Pasadena),"53 E. Union Street Pasadena, CA 91103"
2391550399,https://www.geekswhodrink.com/venues/2391550399,33.4489329,-117.6059392,Artifex Brewing,"919 Calle Amanecer Ste A San Clemente, CA 92673"
2010860568,https://www.geekswhodrink.com/venues/2010860568,47.656707,-117.4258088,The District Bar,"916 W 1st Ave Spokane, WA 99201"
442716919,https://www.geekswhodrink.com/venues/442716919,33.7482573,-117.8651894,Wursthaus,"305 E 4th St #106 Santa Ana, CA 92701"
942938761,https://www.geekswhodrink.com/venues/942938761,33.749299,-117.867246,Mission Control at McFadden Public Market,"515 N Main St. Santa Ana, CA 92701"
2330287487,https://www.geekswhodrink.com/venues/2330287487,34.2362255,-118.2589778,Therapy at the Roar Room,"3645 Foothill Blvd Glendale, CA 91214"
2386133765,https://www.geekswhodrink.com/venues/2386133765,36.8638688,-119.7715563,BarrelHouse Brewing - Fresno,"145 E Paseo Del Centro Fresno, CA 93720"
597626367,https://www.geekswhodrink.com/venues/597626367,34.1210989,-118.206299,The York,"5018 York Blvd Los Angeles, CA 90042"
2304238684,https://www.geekswhodrink.com/venues/2304238684,47.7159714,-117.435885,Cascadia Public House,"6314 N. Ash st Spokane, WA 99208"
2323918734,https://www.geekswhodrink.com/venues/2323918734,34.1461661,-118.2468034,Dave's On Broadway,"708 E. Broadway Glendale, CA 91205"
2370698719,https://www.geekswhodrink.com/venues/2370698719,33.6768478,-117.8855811,Bootlegger's Brewery - Costa Mesa,"696 Randolph Av Ste B Costa Mesa, CA 92626"
37055180,https://www.geekswhodrink.com/venues/37055180,33.6692827,-117.8807811,Durty Nelly's,"2915 Redhill Ave Costa Mesa, CA 92627"
472261107,https://www.geekswhodrink.com/venues/472261107,34.1137406,-118.2349602,Verdugo Bar,"3408 Verdugo Road Los Angeles, CA 90065"
2045783031,https://www.geekswhodrink.com/venues/2045783031,34.1346304,-118.255263,The Greyhound,"933 S Brand Blvd. Glendale, CA 91204"
2335149129,https://www.geekswhodrink.com/venues/2335149129,32.9330029,-117.2527168,THE GOAT,"2334 Carmel Valley Rd Suite A Del Mar, CA 92014"
335912201,https://www.geekswhodrink.com/venues/335912201,36.730957,-119.7884403,Tioga-Sequoia Brewing Company,"745 Fulton St Fresno, CA 93721"
1903262705,https://www.geekswhodrink.com/venues/1903262705,32.825627,-117.16084,Ataraxia Aleworks,"7292 Opportunity Road Suite c San Diego, CA 92111"
598328977,https://www.geekswhodrink.com/venues/598328977,34.1234922,-118.2679693,The Bigfoot Lodge (East),"3172 Los Feliz Blvd Los Angeles, CA 90039"
2330630369,https://www.geekswhodrink.com/venues/2330630369,33.9422913,-118.1329598,Look Cinemas - Downey,"8200 3rd St Downey, CA 90241"
2282351303,https://www.geekswhodrink.com/venues/2282351303,33.6123129,-117.8746856,Muldoons Irish Pub,"202 Newport Center Dr Newport Beach, CA 92660"
597626299,https://www.geekswhodrink.com/venues/597626299,34.0992074,-118.2589245,The Red Lion Tavern,"2366 Glendale Blvd Los Angeles, CA 90039"
348732563,https://www.geekswhodrink.com/venues/348732563,32.7523949,-117.1299178,Rip Current Brewing North Park,"4101 30th Street, San Diego, CA 92104"
2400385980,https://www.geekswhodrink.com/venues/2400385980,32.7512159,-117.1298735,Second Chance Beer Lounge,"4045 30th St Ste A San Diego, CA 92104"
1140034163,https://www.geekswhodrink.com/venues/1140034163,32.7611663,-117.1460068,Kairoa Brewing Company,"4601 Park Blvd San Diego, CA 92116"
1912743905,https://www.geekswhodrink.com/venues/1912743905,32.7611663,-117.1460068,Star Wars Quiz Vol. 1 at Kairoa Brewing Company,"4601 Park Blvd San Diego, CA 92116"
1880377439,https://www.geekswhodrink.com/venues/1880377439,34.1565991,-118.3338897,Brews Brothers Brewpub,"3000 West Olive Ave Burbank, CA 91505"
1988221784,https://www.geekswhodrink.com/venues/1988221784,34.0479433,-118.2590337,Video Vortex @Alamo Drafthouse Los Angeles,"700 W 7th St u240 Los Angeles, CA 90017"
2021583803,https://www.geekswhodrink.com/venues/2021583803,34.0479433,-118.2590337,Guardians of the Galaxy Vol. 3 Hype Quiz! at Video Vortex @Alamo Drafthouse Los Angeles,"700 W 7th St u240 Los Angeles, CA 90017"
2409229750,https://www.geekswhodrink.com/venues/2409229750,34.1521173,-118.3432841,The Auld Chip Shop,"4007 W Riverside drive Burbank, CA 91505"
844462918,https://www.geekswhodrink.com/venues/844462918,34.1646307,-118.3732448,El Tejano Tex Mex,"11122 W Magnolia Blvd North Hollywood, CA 91601"
1223959857,https://www.geekswhodrink.com/venues/1223959857,34.1638342,-118.3736328,Player One Arcade Bar,"5126 Lankershim Blvd North Hollywood, CA 91601"
2170144638,https://www.geekswhodrink.com/venues/2170144638,34.0748548,-118.3089152,Biergarten - LA,"206 N Western Ave Los Angeles, CA 90004"
844463662,https://www.geekswhodrink.com/venues/844463662,34.1574644,-118.4040102,Thirsty Merchant,"12430 Riverside Dr North Hollywood, CA 91607"
1786618564,https://www.geekswhodrink.com/venues/1786618564,33.7127575,-118.063389,Riip Beer Company,"17214 Pacific Coast HWY Huntington Beach, CA 92649"
1940773121,https://www.geekswhodrink.com/venues/1940773121,33.7594419,-118.1336177,Rance's Chicago Pizza (Long Beach),"5258 E. 2nd St Long Beach, CA 90803"
2399889119,https://www.geekswhodrink.com/venues/2399889119,33.7675317,-118.1682428,Beach Garden Social House,"1923 E Broadway Long Beach, CA 90802"
162167740,https://www.geekswhodrink.com/venues/162167740,33.7690667,-118.1866564,The Blind Donkey (Long Beach),"149 Linden Avenue, Unit B 100 Long Beach, CA 90802"
1769725137,https://www.geekswhodrink.com/venues/1769725137,33.9061277,-118.3076904,Eureka Brewing Co.,"13723 1/2 Harvard Pl Gardena, CA 90249"
598329412,https://www.geekswhodrink.com/venues/598329412,34.0155882,-118.413182,The Bigfoot Lodge (West),"10939 Venice Blvd Los Angeles, CA 90034"
2212065258,https://www.geekswhodrink.com/venues/2212065258,46.2000316,-119.2239651,Sage Brewing Co. - Kennewick,"910 S Columbia Center Blvd suite g Kennewick, WA 99336"
2214136031,https://www.geekswhodrink.com/venues/2214136031,34.0153575,-118.4765993,Nostalgia Bar and Lounge,"1326 Pico Blvd Santa Monica, CA 90405"
2409215247,https://www.geekswhodrink.com/venues/2409215247,33.9568321,-118.4431607,Hacienda Playa,"8415 Pershing Dr Playa Del Rey, CA 90293"
2256472316,https://www.geekswhodrink.com/venues/2256472316,46.2706174,-119.202496,Sage Brewing Co. - Pasco,"8425 Chapel Hill Blvd Ste B 102 Pasco, WA 99301"
2340087794,https://www.geekswhodrink.com/venues/2340087794,33.8208228,-118.3521068,Smog City Brewing,"22755 Hawthorne Blvd. Torrance, CA 90505"
1840935078,https://www.geekswhodrink.com/venues/1840935078,46.2287764,-119.2411687,Moonshot Brewing,"8804 W Victoria Ave, Suite 140 Kennewick, WA 99336"
923336726,https://www.geekswhodrink.com/venues/923336726,33.8636677,-118.4001763,Hermosa Brewing Co.,"1342 Hermosa Ave Hermosa Beach, CA 90254"
224332038,https://www.geekswhodrink.com/venues/224332038,46.2869545,-119.2763735,Emerald of Siam,"1314 Jadwin Ave Richland, WA 99354"
2355033578,https://www.geekswhodrink.com/venues/2355033578,29.9919623,-95.7222776,Mo's Irish Pub - Cypress,"14102 Mueschke Rd Cypress, TX 77429"
2355031077,https://www.geekswhodrink.com/venues/2355031077,29.9956419,-95.5709579,Mo's Irish Pub - Houston,"138 Vintage Park Blvd Houston, TX 77070"
2355038880,https://www.geekswhodrink.com/venues/2355038880,29.7836085,-95.7790412,Mo's Irish Pub - Katy,"23511 Katy Fwy Katy, TX 77494"
775011002,https://www.geekswhodrink.com/venues/775011002,29.6918644,-95.8800564,The Growler Spot,"29615 Farm to Market Road 1093 Fulshear, TX 77441"
1701894223,https://www.geekswhodrink.com/venues/1701894223,29.8354305,-95.4102361,Astral Brewing,"4816 N Shepherd Dr suite a Houston, TX 77018"
1134026038,https://www.geekswhodrink.com/venues/1134026038,29.7888587,-95.4367125,Cactus Cove,"3333 W 11th St Houston, TX 77008"
593308978,https://www.geekswhodrink.com/venues/593308978,35.1249351,-90.059491,Ghost River Brewing Company,"827 S Main St Memphis, TN 38106"
2329302552,https://www.geekswhodrink.com/venues/2329302552,29.731939,-95.4774061,Post Oak Ice House,"5610 Richmond Ave Houston, TX 77057"
2302280244,https://www.geekswhodrink.com/venues/2302280244,29.7818022,-95.3910429,Onion Creek,"3106 White Oak Dr Houston, TX 77007"
625411177,https://www.geekswhodrink.com/venues/625411177,29.7721106,-95.4065429,NettBar,"4504 Nett St Houston, TX 77007"
1851949068,https://www.geekswhodrink.com/venues/1851949068,29.7708317,-95.3868914,City Orchard,"1201 Oliver St Unit 108 Houston, TX 77007-7392"
2428254286,https://www.geekswhodrink.com/venues/2428254286,29.7708317,-95.3868914,Star Wars Quiz Vol. 2 at City Orchard,"1201 Oliver St Unit 108 Houston, TX 77007-7392"
275361127,https://www.geekswhodrink.com/venues/275361127,29.7584631,-95.3985625,Pimlico,"810 Waugh Drive Houston, TX 77019"
2285752529,https://www.geekswhodrink.com/venues/2285752529,29.7051521,-95.4751507,CounterCommon Beerworks & Kitchen,"5413 Bellaire Blvd Bellaire, TX 77401"
2352099609,https://www.geekswhodrink.com/venues/2352099609,29.774564,-95.3565688,Bad Astronaut Brewing Co.,"1519 Fulton St Houston, TX 77009"
37234128,https://www.geekswhodrink.com/venues/37234128,29.7497448,-95.3772901,Little Woodrow's Midtown,"2306 Brazos St Houston, TX 77006"
197954199,https://www.geekswhodrink.com/venues/197954199,29.734077,-95.4006668,Penny Whistle Pub,"1625 Richmond Ave Houston, TX 77006"
37239520,https://www.geekswhodrink.com/venues/37239520,29.7437199,-95.3809136,The Maple Leaf Pub,"514 Elgin St Houston, TX 77006"
2355330334,https://www.geekswhodrink.com/venues/2355330334,29.7457877,-95.376096,Glitter Karaoke,"2621 Milam St. Houston, TX 77006"
758213008,https://www.geekswhodrink.com/venues/758213008,29.7341348,-95.3941973,The Patio at The Pit Room,"1205 Richmond Ave Houston, TX 77006"
2117693042,https://www.geekswhodrink.com/venues/2117693042,29.7195555,-95.4163497,The Owl,"2424 Dunstan Rd Suite 150 Houston, TX 77005"
37237878,https://www.geekswhodrink.com/venues/37237878,29.7157306,-95.4145859,Little Woodrow's Rice Village,"5611 Morningside Dr Houston, TX 77005"
2373916372,https://www.geekswhodrink.com/venues/2373916372,29.7433706,-95.3448895,East End Backyard,"1105 Sampson St Houston, TX 77003"
1272145282,https://www.geekswhodrink.com/venues/1272145282,29.6720567,-95.4601583,Watershed Restaurant and Pub,"4820 W Bellfort St Houston, TX 77035"
2038214265,https://www.geekswhodrink.com/venues/2038214265,38.5746744,-121.4825276,Golden Road Brewing - Sacramento,"1830 L St. Sacramento, CA 95811"
2323845698,https://www.geekswhodrink.com/venues/2323845698,38.5799813,-121.498368,Tipsy Putt - Sacramento,"630 K St #120 Sacramento, CA 95814"
2362783591,https://www.geekswhodrink.com/venues/2362783591,41.8841389,-87.949756,Bottle Theory,"542 Spring Rd Elmhurst, IL 60126"
539920805,https://www.geekswhodrink.com/venues/539920805,29.5268881,-95.1189213,Saloon Door Brewing,"105 Magellan Cir Ste. A Webster, TX 77598"
1880459436,https://www.geekswhodrink.com/venues/1880459436,37.0710609,-88.6376279,Star Wars Quiz Vol. 1 at Dry Ground Brewing,"3121 Broadway Paducah, KY 42001"
350532995,https://www.geekswhodrink.com/venues/350532995,37.070792,-88.637641,Dry Ground Brewing Co.,"3121 Broadway Paducah, KY 42001"
1952121313,https://www.geekswhodrink.com/venues/1952121313,29.5373158,-95.0676359,Star Wars Quiz Vol. 1 at Fuzzy's Taco Shop (League City),"2660 Marina Bay Dr. League City, TX 77573"
576248653,https://www.geekswhodrink.com/venues/576248653,29.5373339,-95.0675055,Fuzzy's Taco Shop (League City),"2660 Marina Bay Dr. League City, TX 77573"
1989488701,https://www.geekswhodrink.com/venues/1989488701,41.8214546,-87.843752,Irish Times,"8869 Burlington Ave Brookfield, IL 60513"
2408321217,https://www.geekswhodrink.com/venues/2408321217,41.7550313,-87.8005108,Mama Luigi's Restaurant (Starts on May 3!),"7500 S Harlem Ave Bridgeview, IL 60455"
2412639574,https://www.geekswhodrink.com/venues/2412639574,42.0019736,-87.8153138,On The Rocks Edison Park (Starts on April 27!),"6666 N Northwest Hwy. Chicago, IL 60631"
2414331391,https://www.geekswhodrink.com/venues/2414331391,42.248484,-87.839515,Chief's Pub (Starts on May 3!),"502 N Western Ave Lake Forest, IL 60045"
2229506127,https://www.geekswhodrink.com/venues/2229506127,41.952492,-87.7672333,Bluebird - Portage Park,"3938 N Central Ave Chicago, IL 60634"
2338241312,https://www.geekswhodrink.com/venues/2338241312,43.0459224,-87.9245171,On Tap,"1203 N 10th St Milwaukee, WI 53205"
155971953,https://www.geekswhodrink.com/venues/155971953,42.998758,-87.8930279,Puddler's Hall,"2461 South Saint Clair Street Milwaukee, WI 53207"
2209484361,https://www.geekswhodrink.com/venues/2209484361,46.6009395,-120.5051032,The Tap,"105 S 1st St #106 Yakima, WA 98901"
2107182348,https://www.geekswhodrink.com/venues/2107182348,41.8961242,-87.6760916,Dante's Tavern (formerly: High Dive),"1936 W Chicago Ave Chicago, IL 60622"
1735632996,https://www.geekswhodrink.com/venues/1735632996,41.9434773,-87.6786111,Commonwealth Tavern,"2000 W Roscoe Chicago, IL 60618"
2444862074,https://www.geekswhodrink.com/venues/2444862074,42.019605,-87.6794249,Peckish Pig (Starts on May 9!),"623 Howard Evanston, IL 60202"
2335177284,https://www.geekswhodrink.com/venues/2335177284,41.8908052,-87.6673986,Passport Bar Room,"1601 W Grand Ave Chicago, IL 60622"
1940828405,https://www.geekswhodrink.com/venues/1940828405,36.8479583,-121.4024753,Running Rooster,"800 San Benito St, Ste. B Hollister, CA 95023"
2064146641,https://www.geekswhodrink.com/venues/2064146641,36.8479583,-121.4024753,Star Wars Quiz Vol. 1 at Running Rooster,"800 San Benito St, Ste. B Hollister, CA 95023"
2381880223,https://www.geekswhodrink.com/venues/2381880223,41.9472964,-87.6617345,Guthries Tavern (Starts on May 3!),"1300 West Addison Street Chicago, IL 60613"
2406578823,https://www.geekswhodrink.com/venues/2406578823,41.9461965,-87.6554597,Video Vortex @Alamo Drafthouse Chicago,"3519 N Clark St. Ste C301 Chicago, IL 60657"
2441176296,https://www.geekswhodrink.com/venues/2441176296,41.9461965,-87.6554597,Guardians of the Galaxy Vol. 3 Hype Quiz! at Video Vortex @Alamo Drafthouse Chicago,"3519 N Clark St. Ste C301 Chicago, IL 60657"
2174289439,https://www.geekswhodrink.com/venues/2174289439,31.2706673,-92.4516264,Huckleberry Brewing Company,"4724 Sterkx Road Alexandria, LA 71301"
2350354615,https://www.geekswhodrink.com/venues/2350354615,41.9360565,-87.6541473,DMK Burger Bar,"2954 N Sheffield Ave Chicago, IL 60657"
2164679793,https://www.geekswhodrink.com/venues/2164679793,41.9438662,-87.6544615,Cheba Hut-Chicago,"3412 N Sheffield Chicago, IL 60657"
2361339088,https://www.geekswhodrink.com/venues/2361339088,35.2781436,-120.6652406,BA Start Arcade & Taproom,"647 Higuera San Luis Obispo, CA 93401"
2273494822,https://www.geekswhodrink.com/venues/2273494822,41.9473483,-87.6541189,The Sports Corner Bar & Grill,"956 W Addison St Chicago, IL 60612"
235889112,https://www.geekswhodrink.com/venues/235889112,41.8917859,-87.6314391,Fado Irish Pub (Chicago),"100 West Grand Avenue Chicago, IL 60654"
2412631445,https://www.geekswhodrink.com/venues/2412631445,41.8898079,-87.6289919,JoJo's Shake Bar - River North (Starts on April 27!),"23 W Hubbard St Chicago, IL 60654"
973247018,https://www.geekswhodrink.com/venues/973247018,35.2463028,-120.6707667,Oak and Otter Brewing Co.,"181 Tank Farm Rd. Suite 110 San Luis Obispo, CA 93401"
2227766626,https://www.geekswhodrink.com/venues/2227766626,41.8956003,-87.6263961,Jake Melnick's Corner Tap,"41 E. Superior St. Chicago, IL 60611"
508384867,https://www.geekswhodrink.com/venues/508384867,29.9525769,-93.9845437,Dylan's Bar & Grill,"8601 9th Ave Port Arthur, TX 77642"
2414483974,https://www.geekswhodrink.com/venues/2414483974,37.6692458,-121.8566675,BottleTaps (Starts on April 20!),"3020 Bernal Ave Suite 160 Pleasanton, CA 94566"
2267956391,https://www.geekswhodrink.com/venues/2267956391,37.7046559,-121.8974038,Thirsty Bay Tap 'N Pour,"5286 Iron Horse Pkwy Suite B Dublin, CA 94568"
2220948937,https://www.geekswhodrink.com/venues/2220948937,29.2556385,-94.8491549,Galveston Island Brewing,"8423 Stewart Rd Galveston, TX 77554"
1214774966,https://www.geekswhodrink.com/venues/1214774966,38.010007,-122.0390849,Epidemic Ales,"150 Mason Circle Ste. J Concord, CA 94520"
2275604420,https://www.geekswhodrink.com/venues/2275604420,37.9287439,-122.0165063,Mike Hess Brewing Co.,"2313 Oak Grove Rd Walnut Creek, CA 94598"
1877514734,https://www.geekswhodrink.com/venues/1877514734,37.9766535,-122.0320379,Side Gate Brewery and Beer Garden,"1822 Grant St Concord, CA 94520"
682128978,https://www.geekswhodrink.com/venues/682128978,37.9294204,-122.0247023,Calicraft Brewing Company,"2700 Mitchell Dr Walnut Creek, CA 94598"
1876429314,https://www.geekswhodrink.com/venues/1876429314,37.9312178,-122.0256745,Breaking Bad-iverse Vol. 1 at Calicraft Brewing Company,"2700 Mitchell Dr Walnut Creek, CA 94598"
2078778283,https://www.geekswhodrink.com/venues/2078778283,37.9098748,-122.0637254,Star Wars Quiz Vol. 3 at Rotator Taproom,"1415 Pine St. Walnut Creek, CA 94596"
1805390738,https://www.geekswhodrink.com/venues/1805390738,37.9098748,-122.0637254,Rotator Taproom,"1415 Pine St. Walnut Creek, CA 94596"
2071920672,https://www.geekswhodrink.com/venues/2071920672,27.9515327,-97.1082857,Star Wars Quiz Vol. 1 at Crab-N Seafood Restaurant,"210 Gulf Gate Blvd City-by-the Sea, TX 78336"
2126690749,https://www.geekswhodrink.com/venues/2126690749,37.3227219,-121.9476611,Chika,"300 Santana Row STE 110 San Jose, CA 95128"
20762997,https://www.geekswhodrink.com/venues/20762997,27.7943857,-97.3936029,Executive Surf Club,"309 N Water St Corpus Christi, TX 78401"
2262234739,https://www.geekswhodrink.com/venues/2262234739,30.1952902,-93.2192076,Mellow Mushroom Lake Charles,"3420 Ryan St Lake Charles, LA 70605"
2328711462,https://www.geekswhodrink.com/venues/2328711462,38.2941268,-122.3016718,Napa Valley Distillery,"2485 Stockton St Napa, CA 94559"
1051262098,https://www.geekswhodrink.com/venues/1051262098,38.1317186,-122.2585649,Napa Smith Brewery,"101 Yolano Dr Vallejo, CA 94589"
1881712197,https://www.geekswhodrink.com/venues/1881712197,30.1899116,-93.219031,'90s Quiz Vol. 1 at Rikenjaks Brewing Company,"3716 Ryan St Lake Charles, LA 70605"
434925991,https://www.geekswhodrink.com/venues/434925991,30.189728,-93.218976,Rikenjaks Brewing Company,"3716 Ryan St Lake Charles, LA 70605"
1969930083,https://www.geekswhodrink.com/venues/1969930083,37.2253675,-121.9824964,Loma Brewing Company,"130 N. Santa Cruz Ave. Suite G Los Gatos, CA 95030"
405072221,https://www.geekswhodrink.com/venues/405072221,27.7213108,-97.3752223,Tapology Texas Pub,"4334 S. Staples St. Corpus Christi, TX 78411"
2439783948,https://www.geekswhodrink.com/venues/2439783948,37.8733981,-122.2688226,Star Wars Quiz Vol. 2 at Triple Rock Brewery,"1920 Shattuck Ave Berkeley, CA 94704"
653280588,https://www.geekswhodrink.com/venues/653280588,37.8734032,-122.2688467,Triple Rock Brewery,"1920 Shattuck Ave Berkeley, CA 94704"
963739556,https://www.geekswhodrink.com/venues/963739556,27.6900584,-97.3307069,FLOCK,"1813 Ennis Joslin Rd #107 Corpus Christi, TX 78412"
1796551764,https://www.geekswhodrink.com/venues/1796551764,37.796638,-122.272736,Seawolf Public House,"350 4th Street Oakland, CA 94607"
2437658414,https://www.geekswhodrink.com/venues/2437658414,37.7965736,-122.272766,Star Wars Quiz Vol. 3 at Seawolf Public House,"350 4th Street Oakland, CA 94607"
646449243,https://www.geekswhodrink.com/venues/646449243,37.8794786,-122.2998386,Gilman Brewing Company,"912 Gilman Street Berkeley, CA 94710"
1945869493,https://www.geekswhodrink.com/venues/1945869493,37.7966896,-122.2751719,Federation Brewing,"420 3rd Street - Unit A Oakland, CA 94607"
2433543157,https://www.geekswhodrink.com/venues/2433543157,37.8366644,-122.2921038,Tipsy Putt - Emeryville (Starts on May 16!),"5690 Bay St. Emeryville, CA 94608"
2234262285,https://www.geekswhodrink.com/venues/2234262285,36.9735735,-122.0255413,Rosie Mccann's Irish Pub & Restaurant,"1220 Pacific Ave Santa Cruz, CA 95060"
710132630,https://www.geekswhodrink.com/venues/710132630,37.7637642,-122.4012442,Anchor Public Taps,"495 De Haro St San Francisco, CA 94107"
2291350006,https://www.geekswhodrink.com/venues/2291350006,37.8062857,-122.4226849,Square Pie Guys,"845 Beach Street San Francisco, CA 94109"
1989122577,https://www.geekswhodrink.com/venues/1989122577,37.7562198,-122.419185,Bear vs Bull @Alamo Drafthouse New Mission,"2550 Mission St. San Francisco, CA 94110"
2021648600,https://www.geekswhodrink.com/venues/2021648600,37.7562198,-122.419185,Guardians of the Galaxy Vol. 3 Hype Quiz! at Bear vs Bull @Alamo Drafthouse New Mission,"2550 Mission St. San Francisco, CA 94110"
577999558,https://www.geekswhodrink.com/venues/577999558,40.4255448,-86.8904931,Sixth Street Dive,"827 N 6th St Lafayette, IN 47904"
348731933,https://www.geekswhodrink.com/venues/348731933,37.5040917,-122.4855666,Half Moon Bay Brewing Co.,"390 Capistrano Rd Half Moon Bay, CA 94018"
2181702351,https://www.geekswhodrink.com/venues/2181702351,45.5647039,-122.3268661,54-40 Brewing,"3801 South Truman Street Washougal, WA 98671"
972438012,https://www.geekswhodrink.com/venues/972438012,45.5002982,-122.4323595,The Low Road,"400 NW Miller Ave Gresham, OR 97030"
2448437700,https://www.geekswhodrink.com/venues/2448437700,45.4798895,-122.5685046,Shifters (Starts on May 25!),"9201 SE Foster Rd Portland, OR 97266"
2256446175,https://www.geekswhodrink.com/venues/2256446175,44.0574675,-123.1001002,Old Nick's Pub,"211 Washington St Eugene, OR 97401"
2340023002,https://www.geekswhodrink.com/venues/2340023002,44.0556256,-123.1098666,Nelson's In The Whit,"394 Blair Blvd Eugene, OR 97402"
2042194426,https://www.geekswhodrink.com/venues/2042194426,45.5265916,-122.5812688,East Glisan Pizza Lounge,"8001 NE Glisan St Portland, OR 97213"
2260665806,https://www.geekswhodrink.com/venues/2260665806,45.4934693,-122.6233889,Saint Pizza Lounge,"3817 SE Gladstone St. Portland, OR 97202"
2129327900,https://www.geekswhodrink.com/venues/2129327900,45.4617143,-122.6395136,SportsBox Vegan Bar & Grill,"8445 SE McLoughlin Blvd Portland, OR 97222"
705390971,https://www.geekswhodrink.com/venues/705390971,45.4850035,-122.6392663,Gigantic Brewing Company,"5224 SE 26th Ave Portland, OR 97202"
2185425903,https://www.geekswhodrink.com/venues/2185425903,45.4968699,-122.6348437,Hopworks Urban Brewery,"2944 SE Powell Blvd Portland, OR 97202"
1798614698,https://www.geekswhodrink.com/venues/1798614698,45.4985415,-122.6408407,Baby Ketten Klub,"2433 SE Powell Blvd Portland, OR 97202"
1883686609,https://www.geekswhodrink.com/venues/1883686609,36.5296209,-87.3534093,Kings Bluff Brewery,"128 University Ave. Clarksville, TN 37040"
2344035985,https://www.geekswhodrink.com/venues/2344035985,45.5122,-122.642938,Hawthorne Hideaway,"2221 se Hawthorne Blvd Portland, OR 97214"
2373926945,https://www.geekswhodrink.com/venues/2373926945,45.5194306,-122.6514812,Grand Fir Brewing,"1403 SE Stark St Portland, OR 97214"
2255833937,https://www.geekswhodrink.com/venues/2255833937,45.5167978,-122.6559875,Cascade Brewing,"939 se Belmont street Portland, OR 97214"
1330178319,https://www.geekswhodrink.com/venues/1330178319,45.5349108,-122.6482146,Broadway Grill and Brewery,"1700 NE Broadway St Portland, OR 97232"
2291351571,https://www.geekswhodrink.com/venues/2291351571,45.5198391,-122.656306,Ecliptic Brewing - Moon Room,"930 SE Oak St. Portland, OR 97214"
2156446139,https://www.geekswhodrink.com/venues/2156446139,45.5174948,-122.6609934,Swan Dive,"727 SE Grand Ave Portland, OR 97214"
1956014835,https://www.geekswhodrink.com/venues/1956014835,45.5473391,-122.6752236,Ecliptic Brewing,"825 N Cook St Portland, OR 97227"
2350739414,https://www.geekswhodrink.com/venues/2350739414,45.527445,-122.6848232,The Star Portland,"1309 NW Hoyt St. Portland, OR 97209"
2402553568,https://www.geekswhodrink.com/venues/2402553568,45.5225954,-122.6903279,The Civic Taproom and Bottle Shop,"621 SW 19th Ave Portland, OR 97205"
2108729010,https://www.geekswhodrink.com/venues/2108729010,45.5302176,-122.6882658,The Triple Lindy,"1000 NW 17th Avenue Portland, OR 97209"
2355336123,https://www.geekswhodrink.com/venues/2355336123,39.8671452,-86.3904094,Books & Brews,"1551 N Green St, Suite I Brownsburg, IN 46112"
974524724,https://www.geekswhodrink.com/venues/974524724,45.6252284,-122.673635,Loowit Brewing,"507 Columbia St Vancouver, WA 98660"
2280281532,https://www.geekswhodrink.com/venues/2280281532,45.5817803,-122.7226489,The Twilight Room,"5242 N Lombard St Portland, OR 97203"
2184472668,https://www.geekswhodrink.com/venues/2184472668,41.6727292,-86.2522445,South Bend Brew Werks,"321 S Main St., Ste 105C South Bend, IN 46601"
358737857,https://www.geekswhodrink.com/venues/358737857,45.4459697,-122.7934814,BrewStop Taphouse,"11427 SW Scholls Ferry Rd Beaverton, OR 97008"
1990759463,https://www.geekswhodrink.com/venues/1990759463,45.798254,-122.6607513,3 Peaks Public House & Taproom,"24415 NE 10th Ave Ridgefield, WA 98642"
2358011761,https://www.geekswhodrink.com/venues/2358011761,45.4908521,-122.8279874,Portland Cider,"4005 SE Orbit Street Beaverton, OR 97007"
2433517871,https://www.geekswhodrink.com/venues/2433517871,45.4908521,-122.8279874,Star Wars Quiz Vol. 1 at Portland Cider,"4005 SE Orbit Street Beaverton, OR 97007"
1918465494,https://www.geekswhodrink.com/venues/1918465494,45.5556047,-122.8346608,Bethany Public House,"4840 NW Bethany Blvd Portland, OR 97229"
1310406080,https://www.geekswhodrink.com/venues/1310406080,47.4953096,-121.7860474,Volition Brewing,"112 W North Bend Way North Bend, WA 98045"
2343593006,https://www.geekswhodrink.com/venues/2343593006,39.7631219,-86.1584497,The Saint Shack,"250 S. Meridian St Indianapolis, IN 46225"
559794532,https://www.geekswhodrink.com/venues/559794532,45.5211715,-123.1129836,Ridgewalker Brewing,"1921 21st Ave Forest Grove, OR 97116"
1796533558,https://www.geekswhodrink.com/venues/1796533558,47.2411606,-122.2553137,Half Lion Brewing Company,"1723 w valley highway E #101 Sumner, WA 98390"
2361339241,https://www.geekswhodrink.com/venues/2361339241,40.578531,-85.8737699,Jefferson St. BBQ,"101 N. Jefferson St. Converse, IN 46919"
2228045018,https://www.geekswhodrink.com/venues/2228045018,47.2963797,-122.2459811,Dave and Buster's - Auburn,"1101 Outlet Collection Dr SW Auburn, WA 98001"
2338995043,https://www.geekswhodrink.com/venues/2338995043,47.2963797,-122.2459811,'80s Quiz Vol. 1 at Dave and Buster's - Auburn,"1101 Outlet Collection Dr SW Auburn, WA 98001"
1898850028,https://www.geekswhodrink.com/venues/1898850028,47.4887121,-122.1554481,Bickersons Brewhouse,"4710 NE 4th St Suite. C105 Renton, WA 98059"
167678904,https://www.geekswhodrink.com/venues/167678904,47.4984246,-122.2042679,Trenchers Kitchen and Tap,"822 N 10th Pl #305C Renton, WA 98057"
542489206,https://www.geekswhodrink.com/venues/542489206,47.552109,-122.1774176,Resonate Brewery,"5606 119th Ave SE Bellevue, WA 98006"
2350254615,https://www.geekswhodrink.com/venues/2350254615,47.8640259,-121.975208,Bugu Brewing Company,"14751 N Kelsey ST #107 Monroe, WA 98272"
2447015532,https://www.geekswhodrink.com/venues/2447015532,47.6768012,-122.1273316,Eastside Beerworks (Starts on May 20!),"8300 160th Ave NE #130 Redmond, WA 98052"
2228080207,https://www.geekswhodrink.com/venues/2228080207,47.6127262,-122.1845741,Dave and Buster's - Bellevue,"11639 NE 4th Street Bellevue, WA 98004"
2339000117,https://www.geekswhodrink.com/venues/2339000117,47.6127262,-122.1845741,'80s Quiz Vol. 1 at Dave and Buster's - Bellevue,"11639 NE 4th Street Bellevue, WA 98004"
252807086,https://www.geekswhodrink.com/venues/252807086,47.2618341,-122.4459166,Doyle's Public House,"208 Saint Helens Avenue Tacoma, WA 98402"
2444094098,https://www.geekswhodrink.com/venues/2444094098,47.2618072,-122.4460246,Star Wars Quiz Vol. 2 at Doyle's Public House,"208 Saint Helens Avenue Tacoma, WA 98402"
2139612481,https://www.geekswhodrink.com/venues/2139612481,47.5556743,-122.2706048,Chuck's Hop Shop - Seward Park,"5041 Wilson Ave S Seattle, WA 98118"
1058589945,https://www.geekswhodrink.com/venues/1058589945,47.7052816,-122.212214,JB Bungalow,"9714 NE Juanita Dr Kirkland, WA 98034"
2256255513,https://www.geekswhodrink.com/venues/2256255513,41.9451931,-85.6337204,Useless Creatures Brewing Company,"41 N Main St Three Rivers, MI 49093"
1837923029,https://www.geekswhodrink.com/venues/1837923029,36.1430062,-86.7923326,Jack Brown's Beer & Burger Joint (Edgehill),"1201 Villa Place, Suite 102 Nashville, TN 37212"
120253962,https://www.geekswhodrink.com/venues/120253962,47.614307,-122.317368,The Unicorn,"1118 E Pike St Seattle, WA 98122"
2236311615,https://www.geekswhodrink.com/venues/2236311615,42.970721,-85.680766,Broad Leaf Westside,"443 Bridge Street NW, #1 Grand Rapids, MI 49504"
37043897,https://www.geekswhodrink.com/venues/37043897,47.6145002,-122.3470547,Buckley's In Belltown,"2331 2nd Ave Seattle, WA 98121"
2283034804,https://www.geekswhodrink.com/venues/2283034804,42.9636016,-85.672904,Bobarino's Pizzeria,"20 Monroe Ave NW Grand Rapids, MI 49503"
1801617650,https://www.geekswhodrink.com/venues/1801617650,47.6187051,-122.3460748,Teku Tavern,"552 Denny Way Seattle, WA 98109"
2298749390,https://www.geekswhodrink.com/venues/2298749390,42.9706281,-85.6725749,Atwater Brewery (Grand Rapids),"201 Michigan St NW Grand Rapids, MI 49503"
2154295776,https://www.geekswhodrink.com/venues/2154295776,43.0711045,-85.6812887,Perrin Brewing,"5910 Comstock Park Dr Comstock Park, MI 49321"
1182372766,https://www.geekswhodrink.com/venues/1182372766,43.0300215,-85.6686914,Speciation Artisan Ales Taproom,"928 Wealthy St SE Grand Rapids, MI 49506"
415151062,https://www.geekswhodrink.com/venues/415151062,47.6207814,-122.3597316,Queen Anne Beerhall,"203 W. Thomas St. Seattle, WA 98119"
37243341,https://www.geekswhodrink.com/venues/37243341,47.6243471,-122.3583061,Ozzie's Seattle,"105 W Mercer St Seattle, WA 98119"
34523415,https://www.geekswhodrink.com/venues/34523415,47.6618827,-122.3418701,Blue Star Cafe & Pub,"4512 Stone Way N Seattle, WA 98103"
2015845949,https://www.geekswhodrink.com/venues/2015845949,42.9551536,-85.6456882,Star Wars Quiz Vol. 3 at Speciation Artisan Ales Taproom,"928 Wealthy St SE Grand Rapids, MI 49506"
627211646,https://www.geekswhodrink.com/venues/627211646,47.6521587,-122.3552416,LTD Bar and Grill,"309 N 36th St Seattle, WA 98103"
568444465,https://www.geekswhodrink.com/venues/568444465,42.9551147,-85.6306861,Harmony Brewing Company,"1551 Lake Drive SE Grand Rapids, MI 49506"
359294247,https://www.geekswhodrink.com/venues/359294247,47.6921046,-122.3550067,Flying Bike Cooperative Brewery,"8570 Greenwood Ave. N. Seattle, WA 98103"
19349455,https://www.geekswhodrink.com/venues/19349455,47.6393643,-122.3993489,Magnolia Village Pub,"3221 W McGraw Street Seattle, WA 98199"
2257850049,https://www.geekswhodrink.com/venues/2257850049,47.6909131,-122.3657925,Chuck's Hop Shop - Greenwood,"656 NW 85th St Seattle, WA 98117"
1158921289,https://www.geekswhodrink.com/venues/1158921289,47.6689447,-122.3842866,Ballard Beer Company,"2050 NW Market St. Seattle, WA 98107"
1979695937,https://www.geekswhodrink.com/venues/1979695937,42.909905,-85.575584,Broad Leaf Brewery & Spirits,"2885 Lake Eastbrook Blvd Kentwood, MI 49512"
1929558065,https://www.geekswhodrink.com/venues/1929558065,47.8089235,-122.3867544,Salish Sea Brewing,"180 W Dayton st Edmonds, WA 98020"
2439328137,https://www.geekswhodrink.com/venues/2439328137,38.2859354,-85.8226557,Recbar 812 (Starts on May 24!),"336 Pearl Street New Albany, IN 47150"
2440950099,https://www.geekswhodrink.com/venues/2440950099,38.2859354,-85.8226557,'90s Quiz Vol. 1 at Recbar 812 (Starts on May 24!),"336 Pearl Street New Albany, IN 47150"
2442903955,https://www.geekswhodrink.com/venues/2442903955,36.3871399,-86.4499423,Big Trouble Brewing (Starts on May 4!),"213 W Main St Gallatin, TN 37066"
362564086,https://www.geekswhodrink.com/venues/362564086,41.0597542,-85.1519943,Trubble Brewing,"2725 Broadway Street Fort Wayne, IN 46807"
2285437775,https://www.geekswhodrink.com/venues/2285437775,34.7220227,-86.604583,X Golf Huntsville,"2500 Clinton Ave W Suite C Huntsville, AL 35805"
293514105,https://www.geekswhodrink.com/venues/293514105,42.7371365,-84.5768247,Harry's Place,"404 N Verlinden Ave Lansing, MI 48915"
2239545560,https://www.geekswhodrink.com/venues/2239545560,42.7368258,-84.5455615,Lansing Brewing,"518 E SHIAWASSEE ST Lansing, MI 48912"
2292443673,https://www.geekswhodrink.com/venues/2292443673,42.7368258,-84.5455615,Star Wars Quiz Vol. 1 at Lansing Brewing,"518 E SHIAWASSEE ST Lansing, MI 48912"
44785414,https://www.geekswhodrink.com/venues/44785414,29.9683027,-90.0999173,Twelve Mile Limit,"500 S Telemachus St New Orleans, LA 70119"
2343933526,https://www.geekswhodrink.com/venues/2343933526,42.735504,-84.4815332,Jolly Pumpkin Café & Brewery,"218 Albert Avenue East Lansing, MI 48823"
1976918462,https://www.geekswhodrink.com/venues/1976918462,33.5161721,-86.7906696,Lumbar,"212 29th St. S. Birmingham, AL 35210"
2416613909,https://www.geekswhodrink.com/venues/2416613909,33.4161503,-86.6954933,Mellow Mushroom Hoover (Starts on May 2!),"920 Inverness Corners Birmingham, AL 35242"
2343693254,https://www.geekswhodrink.com/venues/2343693254,40.1501602,-82.9789688,Carfagna's Ristorante,"1440 Gemini Pl Columbus, OH 43240"
2444863272,https://www.geekswhodrink.com/venues/2444863272,42.5684491,-82.8405229,Jefferson Street Pub (Starts on May 4!),"36611 Jefferson Ave Harrison Township, MI 48045"
2285670330,https://www.geekswhodrink.com/venues/2285670330,40.0194685,-82.4744719,Homestead Beer Co.,"811 Irving Wick Dr W Heath, OH 43056"
2306085668,https://www.geekswhodrink.com/venues/2306085668,35.0895575,-84.0350399,Buck Bald Brewing - North Carolina,"104 Tennessee St Suite D Murphy, NC 28906"
2430796490,https://www.geekswhodrink.com/venues/2430796490,33.8714019,-84.337525,Look Cinemas - Brookhaven (Starts on May 3!),"1004 Town Blvd. Brookhaven, GA 31319"
1234814300,https://www.geekswhodrink.com/venues/1234814300,33.9673481,-84.2169159,Anderby Brewing,"110 Technology Pkwy Ste 200 Peachtree Corners, GA 30092"
2447152224,https://www.geekswhodrink.com/venues/2447152224,41.1547063,-81.8620903,Johnny Malloy's Irish Sports Pub (Starts on June 6!),"1038 N Court St. Medina, OH 44256"
2312914405,https://www.geekswhodrink.com/venues/2312914405,41.4772428,-81.7843839,The BottleHouse Brewery and Mead Hall,"13368 Madison Ave Lakewood, OH 44107"
2138426015,https://www.geekswhodrink.com/venues/2138426015,37.4783713,-82.5183723,Broken Throne Brewing,"121 Main St. Pikeville, KY 41501"
866631390,https://www.geekswhodrink.com/venues/866631390,41.500314,-81.565092,Boss Dog Brewing Company,"2179 Lee Rd Cleveland Heights, OH 44118"
2205245818,https://www.geekswhodrink.com/venues/2205245818,41.1368401,-81.4828453,The Workz,"2220 Front St. Cuyahoga Falls, OH 44221"
2126707754,https://www.geekswhodrink.com/venues/2126707754,35.6020865,-82.6246661,Noble Cider & Mead Taproom,"356 New Leicester Highway Asheville, NC 28806"
2038044308,https://www.geekswhodrink.com/venues/2038044308,35.5959502,-82.5550254,The Bier Garden,"46 Haywood St. Asheville, NC 28801"
2394730019,https://www.geekswhodrink.com/venues/2394730019,40.6325269,-80.0583383,Tapville Social - Wexford,"11978 Perry Hwy unit 401 Wexford, PA 15090"
2129518363,https://www.geekswhodrink.com/venues/2129518363,40.5498508,-80.021867,Dave and Buster's - North Hills,"6260 Northway Drive Pittsburgh, PA 15237"
2339031750,https://www.geekswhodrink.com/venues/2339031750,40.5498508,-80.021867,'80s Quiz Vol. 1 at Dave and Buster's - North Hills,"6260 Northway Drive Pittsburgh, PA 15237"
744010768,https://www.geekswhodrink.com/venues/744010768,40.467035,-79.9654959,Eleventh Hour Brewing,"3711 Charlotte St. Pittsburgh, PA 15201"
2150019696,https://www.geekswhodrink.com/venues/2150019696,41.1773146,-79.7104252,Emlenton Brew Haus,"610 Main Street Emlenton, PA 16373"
726125035,https://www.geekswhodrink.com/venues/726125035,40.5560022,-79.7603093,House of 1000 Beers (New Kensington),"357 Freeport St New Kensington, PA 15068"
2338093044,https://www.geekswhodrink.com/venues/2338093044,37.7945698,-80.3001301,Big Draft Brewing,"697 Main St E White Sulphur Springs, WV 24986"
2343766475,https://www.geekswhodrink.com/venues/2343766475,36.07119,-80.29899,'80s Quiz Vol. 1 at Dave and Buster's - Winston-Salem,"3320 Silas Creek Pkwy #300 Winston Salem, NC 27103"
2171703696,https://www.geekswhodrink.com/venues/2171703696,42.8987835,-78.8920002,Community Beer Works,"520 7th St Buffalo, NY 14201"
1752846254,https://www.geekswhodrink.com/venues/1752846254,42.9436427,-78.885014,Tappo Pizza,"166 Chandler Street Buffalo, NY 14207"
1941698790,https://www.geekswhodrink.com/venues/1941698790,42.9436427,-78.885014,Bob's Burgers Vol. 1 at Tappo Pizza,"166 Chandler Street Buffalo, NY 14207"
1219815924,https://www.geekswhodrink.com/venues/1219815924,42.9103807,-78.8774303,Thin Man Brewery,"492 Elmwood Ave Buffalo, NY 14222"
1249442789,https://www.geekswhodrink.com/venues/1249442789,42.869788,-78.8684272,Resurgence Brewing Company,"55 Chicago St Buffalo, NY 14204"
2210632375,https://www.geekswhodrink.com/venues/2210632375,36.0997813,-80.247197,Small Batch Beer Company (Winston-Salem),"241 W 5th Street Winston-salem, NC 27101"
2405979508,https://www.geekswhodrink.com/venues/2405979508,42.8758262,-78.8458479,Flying Bison Brewing Co.,"840 Seneca St Buffalo, NY 14210"
2368851772,https://www.geekswhodrink.com/venues/2368851772,35.8189555,-80.2550448,Goose and the Monkey Brewhouse,"401 South Railroad Street Lexington, NC 27292"
2232891846,https://www.geekswhodrink.com/venues/2232891846,42.964295,-78.7335625,One-Eyed Cat Brewing,"5893 Main Street Williamsville, NY 14221"
1233822359,https://www.geekswhodrink.com/venues/1233822359,36.12176,-80.0721615,Kernersville Brewing,"221 N Main St Kernersville, NC 27284"
541651688,https://www.geekswhodrink.com/venues/541651688,38.44719,-78.87128,Pale Fire Brewing Co,"217 S. Liberty St #105 Harrisonburg, VA 22801"
2323831473,https://www.geekswhodrink.com/venues/2323831473,43.2719231,-77.7486951,Blue Barn Cidery,"928 Manitou Road Hilton, NY 14468"
538698538,https://www.geekswhodrink.com/venues/538698538,38.03502,-78.4864849,Random Row Brewery,"608 Preston Avenue Charlottesville, VA 22903"
509191837,https://www.geekswhodrink.com/venues/509191837,38.0257286,-78.4670889,FIREFLY,"1304 E Market St Charlottesville, VA 22902"
2116297685,https://www.geekswhodrink.com/venues/2116297685,38.0217883,-78.459976,Decipher Brewing,"1740 BROADWAY ST Suite #9 Charlottesville, VA 22902"
48196461,https://www.geekswhodrink.com/venues/48196461,43.0920505,-77.6566063,Lovin' Cup Bistro & Brews,"300 Park Point Drive Rochester, NY 14623"
2022585145,https://www.geekswhodrink.com/venues/2022585145,43.0921586,-77.6563859,Star Wars Quiz Vol. 2 at Lovin' Cup Bistro & Brews,"300 Park Point Drive Rochester, NY 14623"
921226527,https://www.geekswhodrink.com/venues/921226527,43.2147157,-77.639369,Romig's Tavern,"18 Bennington Drive Rochester, NY 14616"
1142767934,https://www.geekswhodrink.com/venues/1142767934,43.1198448,-77.6201622,OTR Woodfire Tavern,"1551 Mt Hope Ave Rochester, NY 14620"
2396982004,https://www.geekswhodrink.com/venues/2396982004,43.058939,-77.6133239,Stone's Pub,"3115 E Henrietta Rd. Henrietta, NY 14467"
2062767570,https://www.geekswhodrink.com/venues/2062767570,43.1505241,-77.5656735,Mullers CiderHouse,"1344 University Ave Rochester, NY 14607"
2323829462,https://www.geekswhodrink.com/venues/2323829462,43.0929079,-77.5137269,Via Girasole Wine Bar,"3 Schoen Place Pittsford, NY 14534"
2285692209,https://www.geekswhodrink.com/venues/2285692209,37.9010415,-78.3256191,The Pub at Lake Monticello,"51 Bunker Blvd Palmyra, VA 22963"
2327092611,https://www.geekswhodrink.com/venues/2327092611,43.1135908,-77.4864415,Good Smoke BBQ,"135 W Commercial St East Rochester, NY 14445"
2283042572,https://www.geekswhodrink.com/venues/2283042572,43.1048613,-77.4429705,Tin Cup Social,"25 Parce Ave 150 Fairport, NY 14450"
2198337443,https://www.geekswhodrink.com/venues/2198337443,35.9956143,-78.9014868,The Oak House Durham,"126 W Main St Durham, NC 27701"
1937242269,https://www.geekswhodrink.com/venues/1937242269,35.9895631,-78.8952487,Ponysaurus Brewing Co.,"219 Hood Street Durham, NC 27701"
1776827553,https://www.geekswhodrink.com/venues/1776827553,35.8628599,-78.7137479,House of Hops (Glenwood),"6909 Glenwood Avenue Suite 100 Raleigh, NC 27612"
2316850392,https://www.geekswhodrink.com/venues/2316850392,38.8187203,-77.6687792,The Farm Brewery at Broad Run,"16015 John Marshall Hwy Broad Run, VA 20137"
2038775998,https://www.geekswhodrink.com/venues/2038775998,35.8007301,-78.6344656,Seven Saturdays Tap Room,"1399 Capital Blvd Raleigh, NC 27603"
1765001377,https://www.geekswhodrink.com/venues/1765001377,35.813427,-78.6278149,House of Hops (McNeil Point),"2340 Bale St. #112 Raleigh, NC 27608"
803078397,https://www.geekswhodrink.com/venues/803078397,35.7784677,-78.604908,Video Vortex @Alamo Drafthouse Raleigh,"2116-D New Bern Ave. Raleigh, NC 27610"
2021630026,https://www.geekswhodrink.com/venues/2021630026,35.7784677,-78.604908,Guardians of the Galaxy Vol. 3 Hype Quiz! at Video Vortex @Alamo Drafthouse Raleigh,"2116-D New Bern Ave. Raleigh, NC 27610"
2330304508,https://www.geekswhodrink.com/venues/2330304508,38.754174,-77.490166,BadWolf Brewing,"9776 Center St Manassas, VA 20110"
2373243398,https://www.geekswhodrink.com/venues/2373243398,35.7990218,-78.4735621,Craften Neighborhood Food and Drink,"706 Money Court Knightdale, NC 27545"
2365421456,https://www.geekswhodrink.com/venues/2365421456,38.9083387,-77.4059141,Hashtag Gaming Arena - Saturday,"13320 Franklin Farm Rd, STE G Herndon, VA 20171"
2225788429,https://www.geekswhodrink.com/venues/2225788429,38.9083387,-77.4059141,Hashtag Gaming Arena - Wednesday,"13320 Franklin Farm Rd, STE G Herndon, VA 20171"
2228058387,https://www.geekswhodrink.com/venues/2228058387,37.6486647,-77.6044272,Dave and Buster's - Richmond,"4001 Brownstone Blvd Glen Allen, VA 23060"
2339036175,https://www.geekswhodrink.com/venues/2339036175,37.6486647,-77.6044272,'80s Quiz Vol. 1 at Dave and Buster's - Richmond,"4001 Brownstone Blvd Glen Allen, VA 23060"
506660028,https://www.geekswhodrink.com/venues/506660028,39.0558001,-77.1101767,7 Locks Brewing,"12227 Wilkins Ave Rockville, MD 20852"
2421433416,https://www.geekswhodrink.com/venues/2421433416,37.5908117,-77.4932986,The Brass Tap - Richmond (Starts on April 25!),"4901 Libbie Mill East Blvd, Suite 100 Richmond, VA 23230"
1775123681,https://www.geekswhodrink.com/venues/1775123681,38.8807938,-77.1158864,Ballston Local (Wednesday),"900 North Glebe Rd Arlington, VA 22031"
1973587367,https://www.geekswhodrink.com/venues/1973587367,38.8807938,-77.1158864,Ballston Local (Monday),"900 North Glebe Rd Arlington, VA 22031"
1894161562,https://www.geekswhodrink.com/venues/1894161562,38.8807938,-77.1158864,Star Wars Quiz Vol. 2 at Ballston Local,"900 North Glebe Rd Arlington, VA 22031"
2445912406,https://www.geekswhodrink.com/venues/2445912406,37.570145,-77.4728267,Star Wars Quiz Vol. 1 at Vasen Brewing Company,"3331 W Moore St Richmond, VA 23230"
682788407,https://www.geekswhodrink.com/venues/682788407,37.5698748,-77.4723196,Vasen Brewing Company,"3331 W Moore St Richmond, VA 23230"
1330053323,https://www.geekswhodrink.com/venues/1330053323,37.5502684,-77.4525287,Ipanema Café,"917 W Grace St Richmond, VA 23220"
450002160,https://www.geekswhodrink.com/venues/450002160,38.9093957,-77.0323307,Kingfisher,"1414 14th St. NW, The Basement Washington, DC 20005"
1203736817,https://www.geekswhodrink.com/venues/1203736817,38.9002163,-77.0172908,Present Company,"438 Massachusetts Ave NW Washington, DC 20001"
406196850,https://www.geekswhodrink.com/venues/406196850,38.9123787,-77.0093213,The Pub & The People,"1648 North Capitol St NW Washington, DC 20001"
2440847694,https://www.geekswhodrink.com/venues/2440847694,39.0974987,-76.6936948,Crooked Crab Brewing Company (Starts on May 24!),"8251 Telegraph Rd. Odenton, MD 21113"
2335140111,https://www.geekswhodrink.com/venues/2335140111,39.2853865,-76.60106,Angeli’s Pizzeria,"413 S High St Baltimore, MD 21202"
2228048795,https://www.geekswhodrink.com/venues/2228048795,39.3749157,-76.4669729,Dave and Buster's - White Marsh,"8200 Perry Hall Blvd Baltimore, MD 21236"
2350487149,https://www.geekswhodrink.com/venues/2350487149,39.3749157,-76.4669729,'80s Quiz Vol. 1 at Dave and Buster's - White Marsh,"8200 Perry Hall Blvd Baltimore, MD 21236"
2367155438,https://www.geekswhodrink.com/venues/2367155438,27.7578798,-82.6386888,Nicko's Pizza and Subs,"1239 4th St S St. Petersburg, FL 33701"
2446341064,https://www.geekswhodrink.com/venues/2446341064,27.9604929,-82.437813,Zydeco Brew Werks (Starts on May 17!),"1902 E 7th Ave Tampa, FL 33605"
2370550887,https://www.geekswhodrink.com/venues/2370550887,38.9562321,-76.0772401,Ten Eyck Brewing Company,"205 Grange Hall Road Queenstown, MD 21658"
1989344746,https://www.geekswhodrink.com/venues/1989344746,39.6114928,-75.7696924,Autumn Arch Beer Project,"810 Pencader Dr, Ste C Newark, DE 19702"
2273468477,https://www.geekswhodrink.com/venues/2273468477,39.6893191,-75.7480057,Timothy's of Newark,"100 Creek View Rd Newark, DE 19711"
661191337,https://www.geekswhodrink.com/venues/661191337,39.7574992,-75.5623177,Trolley Tap House,"1616 Delaware Ave Wilmington, DE 19806"
2362780819,https://www.geekswhodrink.com/venues/2362780819,39.74621,-75.5487594,DECO Wilmington,"111 WEST 10TH ST Wilmington, DE 19801"
27026780,https://www.geekswhodrink.com/venues/27026780,44.66955,-74.98829,Cactus Grill & Cantina,"11 Raymond St Potsdam, NY 13676"
2384354398,https://www.geekswhodrink.com/venues/2384354398,28.5094211,-81.1544441,Avalon Tavern Gastropub & Cocktail Bar,"3831 Avalon Park Blvd East Orlando, FL 32828"
2340550013,https://www.geekswhodrink.com/venues/2340550013,40.6906981,-75.2142444,Two Rivers Brewing Company,"542 Northampton St Easton, PA 18042"
2448487796,https://www.geekswhodrink.com/venues/2448487796,40.015899,-75.2111673,Bark Social Philadelphia (Starts on May 25!),"3720 Main St Suite E Philadelphia, PA 19127"
2228061850,https://www.geekswhodrink.com/venues/2228061850,36.8162169,-76.0723231,Dave and Buster's - Virginia Beach,"701 Lynnhaven Pkwy Virginia Beach, VA 23452"
2343869438,https://www.geekswhodrink.com/venues/2343869438,36.8162169,-76.0723231,'80s Quiz Vol. 1 at Dave and Buster's - Virginia Beach,"701 Lynnhaven Pkwy Virginia Beach, VA 23452"
2149678297,https://www.geekswhodrink.com/venues/2149678297,39.9673072,-75.14039,El Camino Real Restaurant,"1040 N 2nd Street Philadelphia, PA 19123"
2230901761,https://www.geekswhodrink.com/venues/2230901761,39.9561726,-75.1384984,Dave and Buster's - Philadelphia,"325 N Christopher Columbus Blvd Philadelphia, PA 10803"
2339034367,https://www.geekswhodrink.com/venues/2339034367,39.9561726,-75.1384984,'80s Quiz Vol. 1 at Dave and Buster's - Philadelphia,"325 N Christopher Columbus Blvd Philadelphia, PA 10803"
2307808060,https://www.geekswhodrink.com/venues/2307808060,40.5663152,-74.1099527,The Flying Guillotine @Alamo Drafthouse Staten Island,"2636 Hylan Blvd., Suite 230 Staten Island, NY 10306"
2441175263,https://www.geekswhodrink.com/venues/2441175263,40.5663152,-74.1099527,Guardians of the Galaxy Vol. 3 Hype Quiz! at The Flying Guillotine @Alamo Drafthouse Staten Island,"2636 Hylan Blvd., Suite 230 Staten Island, NY 10306"
2443513136,https://www.geekswhodrink.com/venues/2443513136,40.6363856,-74.0775379,Craft House (Starts on May 17!),"60 Van Duzer St Staten Island, NY 10301"
2012202123,https://www.geekswhodrink.com/venues/2012202123,40.7216698,-74.0408067,O'Hara's Downtown,"172 First Street Jersey City, NJ 07302"
393791388,https://www.geekswhodrink.com/venues/393791388,40.7502537,-74.0311188,The Ale House,"1034 Willow Ave Hoboken, NJ 07030"
2339806933,https://www.geekswhodrink.com/venues/2339806933,40.7431311,-74.0288877,Farside Tavern,"531 Washington Street Hoboken, NJ 07030"
2332594112,https://www.geekswhodrink.com/venues/2332594112,40.7103436,-74.016542,Treadwell Park Downtown,"301 South End Ave New York, NY 10280"
1988286686,https://www.geekswhodrink.com/venues/1988286686,40.7077585,-74.0088503,The Pressroom @Alamo Drafthouse 28 Liberty,"28 Liberty Street, Suite SC301 New York, NY 10005"
2021623716,https://www.geekswhodrink.com/venues/2021623716,40.7077585,-74.0088503,Guardians of the Galaxy Vol. 3 Hype Quiz! at The Pressroom @Alamo Drafthouse 28 Liberty,"28 Liberty Street, Suite SC301 New York, NY 10005"
2414877641,https://www.geekswhodrink.com/venues/2414877641,40.7272535,-74.0000015,The Folly (Starts on April 23!),"92 West Houston Street New York, NY 10012"
1030487466,https://www.geekswhodrink.com/venues/1030487466,40.3491871,-74.0687954,Red Tank Brewing,"77 Monmouth St. Red Bank, NJ 07701"
2129518358,https://www.geekswhodrink.com/venues/2129518358,40.7566328,-73.9887914,Dave and Buster's - Times Square,"234 West 42nd Street New York, NY 10036"
2339050399,https://www.geekswhodrink.com/venues/2339050399,40.7566328,-73.9887914,'80s Quiz Vol. 1 at Dave and Buster's - Times Square,"234 West 42nd Street New York, NY 10036"
354732499,https://www.geekswhodrink.com/venues/354732499,40.7375002,-73.9844553,Plug Uglies,"256 3rd Ave New York, NY 10010"
2335143287,https://www.geekswhodrink.com/venues/2335143287,40.740985,-73.981317,HandCraft Kitchen & Cocktails,"367 3rd ave New York, NY 10016"
2443524903,https://www.geekswhodrink.com/venues/2443524903,40.6654412,-73.9898668,Rullo's (Starts on May 15!),"560 5th Ave Brooklyn, NY 11215"
532021164,https://www.geekswhodrink.com/venues/532021164,40.6907009,-73.9834976,House of Wax @Alamo Drafthouse Brooklyn,"445 Albee Square W #4410 Brooklyn, NY 11201"
2021608201,https://www.geekswhodrink.com/venues/2021608201,40.6908759,-73.9828655,Guardians of the Galaxy Vol. 3 Hype Quiz! at House of Wax @Alamo Drafthouse Brooklyn,"445 Albee Square W #4410 Brooklyn, NY 11201"
2332593871,https://www.geekswhodrink.com/venues/2332593871,40.7614741,-73.9611074,Treadwell Park Upper East Side,"1125 1st Avenue New York, NY 10065"
223268453,https://www.geekswhodrink.com/venues/223268453,40.776298,-73.955481,Dylan Murphy's,"1453 3rd Ave New York, NY 10028"
2235126778,https://www.geekswhodrink.com/venues/2235126778,40.7709201,-73.9540984,The Raven Pub NYC,"1471 1st Ave. New York, NY 10075"
2412565940,https://www.geekswhodrink.com/venues/2412565940,40.719531,-73.9606938,Shelter (Starts on April 24!),"168-170 Wythe Ave Brooklyn, NY 11249"
2438424351,https://www.geekswhodrink.com/venues/2438424351,40.6739018,-73.9570057,The Crown Inn (Starts on May 16!),"724 Franklin Ave. Brooklyn, NY 11238"
291058399,https://www.geekswhodrink.com/venues/291058399,40.7615369,-73.9240335,Sek'end Sun,"32-11 Broadway Queens, NY 11106"
2443511910,https://www.geekswhodrink.com/venues/2443511910,40.7671967,-73.9202294,Katch Astoria (Starts on May 10!),"31-19 Newtown Ave Queens, NY 11102"
1696269592,https://www.geekswhodrink.com/venues/1696269592,40.7000637,-73.9295296,Farewell Bar,"143 Troutman St Brooklyn, NY 11206"
2228037010,https://www.geekswhodrink.com/venues/2228037010,40.6829522,-73.4345953,Dave and Buster's - Massapequa,"1 Sunrise Mall Ste 2192 Massapequa, NY 11758"
2339028071,https://www.geekswhodrink.com/venues/2339028071,40.6829522,-73.4345953,'80s Quiz Vol. 1 at Dave and Buster's - Massapequa,"1 Sunrise Mall Ste 2192 Massapequa, NY 11758"
2387965975,https://www.geekswhodrink.com/venues/2387965975,41.6788566,-72.9473946,Bristol Sports Bar & Grille,"369 N Main St Bristol, CT 06010"
2336463216,https://www.geekswhodrink.com/venues/2336463216,26.1323832,-80.1378733,The Easton Rooftop and Bar,"721 N. Federal Highway Fort Lauderdale, FL 33304"
1957070409,https://www.geekswhodrink.com/venues/1957070409,42.2309518,-72.0291418,Star Wars Quiz Vol. 2 at Timberyard Brewing Company,"555 East Main Street East Brookfield, MA 01515"
1072697650,https://www.geekswhodrink.com/venues/1072697650,42.2309535,-72.0291402,Timberyard Brewing Company,"555 East Main Street East Brookfield, MA 01515"
2323837996,https://www.geekswhodrink.com/venues/2323837996,43.476408,-71.542767,Pour Decisions Brewing,"500 Laconia Rd Tilton, NH 03276"
2193305670,https://www.geekswhodrink.com/venues/2193305670,43.2076354,-71.5363559,The Barley House,"132 North Main St. Concord, NH 03301"
1141283554,https://www.geekswhodrink.com/venues/1141283554,42.3463487,-71.5472955,Lost Shoe Brewing & Roasting Company,"19 Weed St Marlborough, MA 01752"
323253891,https://www.geekswhodrink.com/venues/323253891,42.7638849,-71.4662502,The Peddler's Daughter,"48 Main Street Nashua, NH 03064"
81322144,https://www.geekswhodrink.com/venues/81322144,42.2952872,-71.4997625,Owen O'Leary's Restaurant & Pub (Southborough),"50 Turnpike Rd Southborough, MA 01745"
2362778127,https://www.geekswhodrink.com/venues/2362778127,42.5939397,-71.3510308,Max and Leo's Pizza,"20 Boston Rd Chelmsford, MA 01824"
366744777,https://www.geekswhodrink.com/venues/366744777,41.8175802,-71.4244549,Pizza J,"967 Westminster St. Providence, RI 02903"
2421437673,https://www.geekswhodrink.com/venues/2421437673,42.3680906,-71.2373118,BakBar at Tempo (Starts on May 9!),"474 Moody St Waltham, MA 02453"
2361730803,https://www.geekswhodrink.com/venues/2361730803,42.3980942,-71.174281,Trinktisch,"87 Leonard Street Belmont, MA 02445"
2012362372,https://www.geekswhodrink.com/venues/2012362372,42.5955747,-71.119321,Hopothecary Ales,"303 Main Street North Reading, MA 02164"
2368724029,https://www.geekswhodrink.com/venues/2368724029,42.3885828,-71.1422369,Freepoint Hotel,"220 Alewife Brook Parkway Cambridge, MA 02138"
1269009288,https://www.geekswhodrink.com/venues/1269009288,42.3419258,-71.1233104,Hamilton Restaurant (Brookline),"1366 Beacon Street Brookline, MA 02446"
2257490066,https://www.geekswhodrink.com/venues/2257490066,42.3331176,-71.1184866,Garrison House,"6 Harvard Square Brookline, MA 02445"
30363902,https://www.geekswhodrink.com/venues/30363902,42.3640231,-71.1019671,Phoenix Landing,"512 Massachusetts Avenue Cambridge, MA 02139"
2205794622,https://www.geekswhodrink.com/venues/2205794622,42.2051868,-71.1223848,Trillium Brewing - Canton,"100 Royall St Canton, MA 02021"
37074648,https://www.geekswhodrink.com/venues/37074648,42.4269457,-71.0683442,Hugh O'Neill's,"45 Pleasant St. Malden, MA 02148"
1929655335,https://www.geekswhodrink.com/venues/1929655335,42.4061355,-71.0678836,Star Wars Quiz Vol. 3 at Night Shift Brewing,"87 Santilli Highway Everett, MA 02149"
232225947,https://www.geekswhodrink.com/venues/232225947,42.4060816,-71.067829,Night Shift Brewing,"87 Santilli Highway Everett, MA 02149"
2443518853,https://www.geekswhodrink.com/venues/2443518853,42.3469237,-71.0706459,Trophy Room (Starts on May 18!),"26 Chandler St Boston, MA 02116"
2400208960,https://www.geekswhodrink.com/venues/2400208960,42.35108,-71.0690725,M.J. O'Connor's,"27 Columbus Ave Boston, MA 02116"
2350370619,https://www.geekswhodrink.com/venues/2350370619,42.3468481,-71.0692967,Reunion BBQ,"439 Tremont St. Boston, MA 02116"
2332161569,https://www.geekswhodrink.com/venues/2332161569,42.3509108,-71.0646837,Bar Moxy,"240 Tremont Street Boston, MA 02116"
2355660073,https://www.geekswhodrink.com/venues/2355660073,42.3564016,-71.0600964,SideBar,"14 Bromfield St Boston, MA 02128"
2063133653,https://www.geekswhodrink.com/venues/2063133653,42.3670789,-71.0581116,Ducali Pizzeria & Bar,"289 Causeway Street Boston, MA 02114"
2325693743,https://www.geekswhodrink.com/venues/2325693743,42.3593837,-71.0565553,Sam Adams Downtown Boston Taproom,"60 State Street Boston, MA 02109"
2427026770,https://www.geekswhodrink.com/venues/2427026770,42.3593837,-71.0565553,RuPaul's Drag Race Quiz Vol. 1 at Sam Adams Downtown Boston Taproom,"60 State Street Boston, MA 02109"
2199082177,https://www.geekswhodrink.com/venues/2199082177,42.3370907,-71.0558258,PKL Boston,"64 C. St. South Boston, MA 02127"
2351655755,https://www.geekswhodrink.com/venues/2351655755,42.3522002,-71.0474223,Trillium Brewing Company - Fort Point,"50 Thomson Pl Boston, MA 02210"
2330313477,https://www.geekswhodrink.com/venues/2330313477,42.346915,-71.0343979,Harpoon Brewery,"306 Northern Ave Boston, MA 02210"
2225774790,https://www.geekswhodrink.com/venues/2225774790,43.0788567,-70.9380776,The Stone Church,"5 Granite Street Newmarket, NH 03857"
2176663962,https://www.geekswhodrink.com/venues/2176663962,42.3753962,-70.9854913,Drop Zone Brewery and Taproom,"10 Putnam St #6 Michaels Mall Winthrop, MA 02152"
215530791,https://www.geekswhodrink.com/venues/215530791,42.5521855,-70.8789931,Indo Pub,"298 Cabot Street Beverly, MA 01915"
2220195414,https://www.geekswhodrink.com/venues/2220195414,43.0770389,-70.7573011,Tuscan Market,"14 Market Sq Portsmouth, NH 03801"
2018130937,https://www.geekswhodrink.com/venues/2018130937,42.1616964,-70.7913438,The Tinker's Son,"707 Main Street Norwell, MA 02061"
2295211106,https://www.geekswhodrink.com/venues/2295211106,43.3038293,-70.5814785,Batson River Fish Camp,"73 Mile Rd Wells, ME 04090"
2175899659,https://www.geekswhodrink.com/venues/2175899659,61.3190845,-149.5814025,Odd Man Rush Brewing,"10930 Mausel St. Unit A1 Eagle River, AK 99577"
2129502466,https://www.geekswhodrink.com/venues/2129502466,61.1436875,-149.8676943,Dave and Buster's - Anchorage,"800 E Dimond Blvd. Suite 240 Anchorage, AK 99515"
2338990889,https://www.geekswhodrink.com/venues/2338990889,61.1436875,-149.8676943,'80s Quiz Vol. 1 at Dave and Buster's - Anchorage,"800 E Dimond Blvd. Suite 240 Anchorage, AK 99515"
1848226201,https://www.geekswhodrink.com/venues/1848226201,61.2163184,-149.893025,Williwaw,"609 F St Anchorage, AK 99501"
364336773,https://www.geekswhodrink.com/venues/364336773,61.2196297,-149.8959203,49th State Brewing Company,"717 W 3rd Ave Anchorage, AK 99501"
2448447295,https://www.geekswhodrink.com/venues/2448447295,61.2101936,-149.9026429,Inlet PubHouse (Starts on June 14!),"1020 W 12th Ave Anchorage, AK 99501"
781481827,https://www.geekswhodrink.com/venues/781481827,19.646605,-155.9981841,Ola Brew Co.,"74-5598 Luhia Street Kailua-Kona, HI 96740"
2265943004,https://www.geekswhodrink.com/venues/2265943004,21.3918022,-157.7418056,Grace In Growlers,"143 Hekili St Kailua, HI 96734"
1977208124,https://www.geekswhodrink.com/venues/1977208124,21.3009372,-157.8567457,Aloha Beer Company (Kaka'ako),"700 Queen St Honolulu, HI 96813"
802572355,https://www.geekswhodrink.com/venues/802572355,21.2991603,-157.8560005,Waikiki Brewing Company (Kaka'ako),"831 Queen St, Honolulu, HI 96813"
435273089,https://www.geekswhodrink.com/venues/435273089,21.2972363,-157.8605458,Honolulu Beerworks,"328 Cooke St Honolulu, HI 96813"
2174418969,https://www.geekswhodrink.com/venues/2174418969,21.3783229,-157.9350934,Dixie Grill,"99-016 Kamehameha Hwy Ste D Aiea, HI 96701"
